{"features":[{"geometry":{"coordinates":[103.80004,1.44263],"type":"Point"},"properties":{"g":"","l":"P","n":"Admiralty Primary School","p":"738907","t":"Government School","u":"https://admiraltypri.moe.edu.sg/"},"type":"Feature"},{"geometry":{"coordinates":[103.8024,1.44589],"type":"Point"},"properties":{"g":"","l":"S","n":"Admiralty Secondary School","p":"737916","t":"Government School","u":"http://www.admiraltysec.moe.edu.sg"},"type":"Feature"},{"geometry":{"coordinates":[103.83294,1.43315],"type":"Point"},"properties":{"g":"","l":"P","n":"Ahmad Ibrahim Primary School","p":"768643","t":"Government School","u":"http://www.ahmadibrahimpri.moe.edu.sg"},"type":"Feature"},{"geometry":{"coordinates":[103.82972,1.43606],"type":"Point"},"properties":{"g":"","l":"S","n":"Ahmad Ibrahim Secondary School","p":"768928","t":"Government School","u":"http://www.ahmadibrahimsec.moe.edu.sg"},"type":"Feature"},{"geometry":{"coordinates":[103.83302,1.36058],"type":"Point"},"properties":{"g":"","l":"P","n":"Ai Tong School","p":"579646","t":"Government-Aided School","u":"http://www.aitong.moe.edu.sg"},"type":"Feature"},{"geometry":{"coordinates":[103.82442,1.29133],"type":"Point"},"properties":{"g":"","l":"P","n":"Alexandra Primary School","p":"159016","t":"Government School","u":"http://alexandrapri.moe.edu.sg"},"type":"Feature"},{"geometry":{"coordinates":[103.88717,1.39037],"type":"Point"},"properties":{"g":"","l":"P","n":"Anchor Green Primary School","p":"544969","t":"Government School","u":"http://www.anchorgreenpri.moe.edu.sg"},"type":"Feature"},{"geometry":{"coordinates":[103.84139,1.38426],"type":"Point"},"properties":{"g":"","l":"P","n":"Anderson Primary School","p":"569785","t":"Government School","u":"http://www.andersonpri.moe.edu.sg"},"type":"Feature"},{"geometry":{"coordinates":[103.85155,1.37434],"type":"Point"},"properties":{"g":"","l":"S","n":"Anderson Secondary School","p":"569206","t":"Government School","u":"http://www.andersonsec.moe.edu.sg"},"type":"Feature"},{"geometry":{"coordinates":[103.88704,1.36504],"type":"Point"},"properties":{"g":"","l":"J","n":"Anderson Serangoon Junior College","p":"534768","t":"Government School","u":"www.asrjc.moe.edu.sg"},"type":"Feature"},{"geometry":{"coordinates":[103.83963,1.36932],"type":"Point"},"properties":{"g":"","l":"P","n":"Ang Mo Kio Primary School","p":"569920","t":"Government School","u":"http://www.angmokiopri.moe.edu.sg"},"type":"Feature"},{"geometry":{"coordinates":[103.84215,1.36734],"type":"Point"},"properties":{"g":"","l":"S","n":"Ang Mo Kio Secondary School","p":"569362","t":"Government School","u":"http://www.angmokiosec.moe.edu.sg"},"type":"Feature"},{"geometry":{"coordinates":[103.94185,1.33118],"type":"Point"},"properties":{"g":"","l":"S","n":"Anglican High School","p":"487012","t":"Government-Aided School","u":"http://www.anglicanhigh.moe.edu.sg"},"type":"Feature"},{"geometry":{"coordinates":[103.78536,1.30304],"type":"Point"},"properties":{"g":"","l":"J","n":"Anglo-Chinese Junior College","p":"139745","t":"Government-Aided School","u":"https://acjc.moe.edu.sg"},"type":"Feature"},{"geometry":{"coordinates":[103.83577,1.31962],"type":"Point"},"properties":{"g":"Boys","l":"S","n":"Anglo-Chinese School (Barker Road)","p":"309919","t":"Government-Aided School","u":"http://www.acsbr.moe.edu.sg"},"type":"Feature"},{"geometry":{"coordinates":[103.78036,1.3037],"type":"Point"},"properties":{"g":"","l":"S","n":"Anglo-Chinese School (Independent)","p":"139650","t":"Independent School","u":"https://www.acsindep.moe.edu.sg"},"type":"Feature"},{"geometry":{"coordinates":[103.84095,1.30935],"type":"Point"},"properties":{"g":"Boys","l":"P","n":"Anglo-Chinese School (Junior)","p":"227988","t":"Government-Aided School","u":"www.acsj.moe.edu.sg"},"type":"Feature"},{"geometry":{"coordinates":[103.83561,1.31837],"type":"Point"},"properties":{"g":"Boys","l":"P","n":"Anglo-Chinese School (Primary)","p":"309918","t":"Government-Aided School","u":"http://www.acspri.moe.edu.sg/"},"type":"Feature"},{"geometry":{"coordinates":[103.93894,1.36361],"type":"Point"},"properties":{"g":"","l":"P","n":"Angsana Primary School","p":"528565","t":"Government School","u":"https://angsanapri.moe.edu.sg/"},"type":"Feature"},{"geometry":{"coordinates":[103.76669,1.36838],"type":"Point"},"properties":{"g":"","l":"S","n":"Assumption English School","p":"678117","t":"Government-Aided School","u":"http://www.assumptionenglish.moe.edu.sg"},"type":"Feature"},{"geometry":{"coordinates":[103.76596,1.36967],"type":"Point"},"properties":{"g":"","l":"S","n":"Assumption Pathway School","p":"679697","t":"Specialised Independent School","u":"http://www.aps.edu.sg"},"type":"Feature"},{"geometry":{"coordinates":[103.88281,1.33995],"type":"Point"},"properties":{"g":"","l":"S","n":"Bartley Secondary School","p":"538403","t":"Government School","u":"http://www.bartleysec.moe.edu.sg"},"type":"Feature"},{"geometry":{"coordinates":[103.77363,1.38395],"type":"Point"},"properties":{"g":"","l":"P","n":"Beacon Primary School","p":"679944","t":"Government School","u":"https://beaconpri.moe.edu.sg/"},"type":"Feature"},{"geometry":{"coordinates":[103.85228,1.34179],"type":"Point"},"properties":{"g":"","l":"S","n":"Beatty Secondary School","p":"318990","t":"Government School","u":"http://www.beattysec.moe.edu.sg"},"type":"Feature"},{"geometry":{"coordinates":[103.93788,1.32345],"type":"Point"},"properties":{"g":"","l":"P","n":"Bedok Green Primary School","p":"469317","t":"Government School","u":"http://www.bedokgreenpri.moe.edu.sg"},"type":"Feature"},{"geometry":{"coordinates":[103.93503,1.33452],"type":"Point"},"properties":{"g":"","l":"S","n":"Bedok Green Secondary School","p":"469722","t":"Government School","u":"http://www.bedokgreensec.moe.edu.sg"},"type":"Feature"},{"geometry":{"coordinates":[103.95099,1.32514],"type":"Point"},"properties":{"g":"","l":"S","n":"Bedok South Secondary School","p":"468585","t":"Government School","u":"https://www.bedoksouthsec.moe.edu.sg/"},"type":"Feature"},{"geometry":{"coordinates":[103.94378,1.32416],"type":"Point"},"properties":{"g":"","l":"S","n":"Bedok View Secondary School","p":"469293","t":"Government School","u":"http://www.bedokviewsec.moe.edu.sg"},"type":"Feature"},{"geometry":{"coordinates":[103.8654,1.32181],"type":"Point"},"properties":{"g":"","l":"P","n":"Bendemeer Primary School","p":"339948","t":"Government School","u":"http://www.bendemeerpri.moe.edu.sg/"},"type":"Feature"},{"geometry":{"coordinates":[103.86097,1.32461],"type":"Point"},"properties":{"g":"","l":"S","n":"Bendemeer Secondary School","p":"327919","t":"Government School","u":"http://www.bendemeersec.moe.edu.sg"},"type":"Feature"},{"geometry":{"coordinates":[103.80863,1.27612],"type":"Point"},"properties":{"g":"","l":"P","n":"Blangah Rise Primary School","p":"109100","t":"Government School","u":"http://www.blangahrisepri.moe.edu.sg/"},"type":"Feature"},{"geometry":{"coordinates":[103.71328,1.34318],"type":"Point"},"properties":{"g":"","l":"P","n":"Boon Lay Garden Primary School","p":"649930","t":"Government School","u":"www.boonlaygardenpri.moe.edu.sg"},"type":"Feature"},{"geometry":{"coordinates":[103.70189,1.34272],"type":"Point"},"properties":{"g":"","l":"S","n":"Boon Lay Secondary School","p":"648354","t":"Government School","u":"https://www.boonlaysec.moe.edu.sg"},"type":"Feature"},{"geometry":{"coordinates":[103.87766,1.37036],"type":"Point"},"properties":{"g":"","l":"S","n":"Bowen Secondary School","p":"547529","t":"Government School","u":"http://www.bowensec.moe.edu.sg"},"type":"Feature"},{"geometry":{"coordinates":[103.88692,1.30705],"type":"Point"},"properties":{"g":"","l":"S","n":"Broadrick Secondary School","p":"399935","t":"Government School","u":"http://www.broadricksec.moe.edu.sg"},"type":"Feature"},{"geometry":{"coordinates":[103.74087,1.34849],"type":"Point"},"properties":{"g":"","l":"S","n":"Bukit Batok Secondary School","p":"658962","t":"Government School","u":"http://www.bukitbatoksec.moe.edu.sg"},"type":"Feature"},{"geometry":{"coordinates":[103.81344,1.28569],"type":"Point"},"properties":{"g":"","l":"S","n":"Bukit Merah Secondary School","p":"159050","t":"Government School","u":"http://www.bukitmerahsec.moe.edu.sg"},"type":"Feature"},{"geometry":{"coordinates":[103.73836,1.38224],"type":"Point"},"properties":{"g":"","l":"S","n":"Bukit Panjang Govt. High School","p":"689809","t":"Government School","u":"http://www.bpghs.moe.edu.sg"},"type":"Feature"},{"geometry":{"coordinates":[103.76937,1.37362],"type":"Point"},"properties":{"g":"","l":"P","n":"Bukit Panjang Primary School","p":"679676","t":"Government School","u":"http://www.bukitpanjangpri.moe.edu.sg"},"type":"Feature"},{"geometry":{"coordinates":[103.76683,1.3373],"type":"Point"},"properties":{"g":"","l":"P","n":"Bukit Timah Primary School","p":"598112","t":"Government School","u":"http://www.bukittimahpri.moe.edu.sg"},"type":"Feature"},{"geometry":{"coordinates":[103.75367,1.34586],"type":"Point"},"properties":{"g":"","l":"P","n":"Bukit View Primary School","p":"659634","t":"Government School","u":"http://www.bukitviewpri.moe.edu.sg"},"type":"Feature"},{"geometry":{"coordinates":[103.75223,1.34573],"type":"Point"},"properties":{"g":"","l":"S","n":"Bukit View Secondary School","p":"659633","t":"Government School","u":"https://www.bukitviewsec.moe.edu.sg"},"type":"Feature"},{"geometry":{"coordinates":[103.91111,1.30649],"type":"Point"},"properties":{"g":"Girls","l":"P","n":"CHIJ (Katong) Primary","p":"424821","t":"Government-Aided School","u":"http://chijkcp.moe.edu.sg/"},"type":"Feature"},{"geometry":{"coordinates":[103.82816,1.27502],"type":"Point"},"properties":{"g":"Girls","l":"P","n":"CHIJ (Kellock)","p":"99757","t":"Government-Aided School","u":"http://www.chijkellock.moe.edu.sg/"},"type":"Feature"},{"geometry":{"coordinates":[103.91714,1.30644],"type":"Point"},"properties":{"g":"Girls","l":"S","n":"CHIJ Katong Convent","p":"449150","t":"Government-Aided School","u":"http://www.chijkatongconvent.moe.edu.sg"},"type":"Feature"},{"geometry":{"coordinates":[103.86401,1.35743],"type":"Point"},"properties":{"g":"Girls","l":"P","n":"CHIJ Our Lady Of Good Counsel","p":"558979","t":"Government-Aided School","u":"http://www.chijourladyofgoodcounsel.moe.edu.sg"},"type":"Feature"},{"geometry":{"coordinates":[103.89758,1.3733],"type":"Point"},"properties":{"g":"Girls","l":"P","n":"CHIJ Our Lady Of The Nativity","p":"534793","t":"Government-Aided School","u":"http://www.chijourladyofthenativity.moe.edu.sg/"},"type":"Feature"},{"geometry":{"coordinates":[103.76741,1.3666],"type":"Point"},"properties":{"g":"Girls","l":"P","n":"CHIJ Our Lady Queen Of Peace","p":"679287","t":"Government-Aided School","u":"http://www.chijourladyqueenofpeace.moe.edu.sg/"},"type":"Feature"},{"geometry":{"coordinates":[103.84185,1.33275],"type":"Point"},"properties":{"g":"Girls","l":"P","n":"CHIJ Primary (Toa Payoh)","p":"319765","t":"Government-Aided School","u":"http://www.chijpritoapayoh.moe.edu.sg"},"type":"Feature"},{"geometry":{"coordinates":[103.84327,1.33246],"type":"Point"},"properties":{"g":"Girls","l":"S","n":"CHIJ Secondary (Toa Payoh)","p":"319764","t":"Government-Aided School","u":"http://www.chijsec.edu.sg"},"type":"Feature"},{"geometry":{"coordinates":[103.90246,1.39175],"type":"Point"},"properties":{"g":"Girls","l":"S","n":"CHIJ St. Joseph's Convent","p":"548595","t":"Government-Aided School","u":"http://www.chijstjosephsconvent.moe.edu.sg"},"type":"Feature"},{"geometry":{"coordinates":[103.83425,1.37348],"type":"Point"},"properties":{"g":"Girls","l":"P","n":"CHIJ St. Nicholas Girls' School","p":"569405","t":"Government-Aided School","u":"http://www.chijstnicholasgirls.moe.edu.sg"},"type":"Feature"},{"geometry":{"coordinates":[103.82244,1.27535],"type":"Point"},"properties":{"g":"Girls","l":"S","n":"CHIJ St. Theresa's Convent","p":"99138","t":"Government-Aided School","u":"http://www.chijsttheresasconvent.moe.edu.sg"},"type":"Feature"},{"geometry":{"coordinates":[103.81586,1.45125],"type":"Point"},"properties":{"g":"","l":"P","n":"Canberra Primary School","p":"757714","t":"Government School","u":"http://www.canberrapri.moe.edu.sg"},"type":"Feature"},{"geometry":{"coordinates":[103.8142,1.45319],"type":"Point"},"properties":{"g":"","l":"S","n":"Canberra Secondary School","p":"757699","t":"Government School","u":"https://canberrasec.moe.edu.sg"},"type":"Feature"},{"geometry":{"coordinates":[103.88155,1.32686],"type":"Point"},"properties":{"g":"","l":"P","n":"Canossa Catholic Primary School","p":"387621","t":"Government-Aided School","u":"https://canossacatholicpri.moe.edu.sg/"},"type":"Feature"},{"geometry":{"coordinates":[103.83996,1.27547],"type":"Point"},"properties":{"g":"","l":"P","n":"Cantonment Primary School","p":"88256","t":"Government School","u":"http://www.cantonmentpri.moe.edu.sg"},"type":"Feature"},{"geometry":{"coordinates":[103.95702,1.37246],"type":"Point"},"properties":{"g":"","l":"P","n":"Casuarina Primary School","p":"518935","t":"Government School","u":"http://www.casuarinapri.moe.edu.sg/"},"type":"Feature"},{"geometry":{"coordinates":[103.8449,1.35453],"type":"Point"},"properties":{"g":"Boys","l":"P","n":"Catholic High School","p":"579767","t":"Government-Aided School","u":"http://www.catholichigh.moe.edu.sg"},"type":"Feature"},{"geometry":{"coordinates":[103.83503,1.32456],"type":"Point"},"properties":{"g":"","l":"J","n":"Catholic Junior College","p":"297822","t":"Government-Aided School","u":"https://cjc.moe.edu.sg/"},"type":"Feature"},{"geometry":{"coordinates":[103.87393,1.33376],"type":"Point"},"properties":{"g":"Girls","l":"S","n":"Cedar Girls' Secondary School","p":"349692","t":"Government School","u":"http://www.cedargirlssec.moe.edu.sg"},"type":"Feature"},{"geometry":{"coordinates":[103.87562,1.33559],"type":"Point"},"properties":{"g":"","l":"P","n":"Cedar Primary School","p":"349700","t":"Government School","u":"http://www.cedarpri.moe.edu.sg"},"type":"Feature"},{"geometry":{"coordinates":[103.95325,1.33951],"type":"Point"},"properties":{"g":"","l":"S","n":"Changkat Changi Secondary School","p":"529894","t":"Government School","u":"http://www.changkatchangisec.moe.edu.sg"},"type":"Feature"},{"geometry":{"coordinates":[103.95208,1.34023],"type":"Point"},"properties":{"g":"","l":"P","n":"Changkat Primary School","p":"529896","t":"Government School","u":"http://www.changkatpri.moe.edu.sg/"},"type":"Feature"},{"geometry":{"coordinates":[103.83931,1.4384],"type":"Point"},"properties":{"g":"","l":"P","n":"Chongfu School","p":"768959","t":"Government-Aided School","u":"http://www.chongfu.moe.edu.sg/"},"type":"Feature"},{"geometry":{"coordinates":[103.9514,1.35071],"type":"Point"},"properties":{"g":"","l":"P","n":"Chongzheng Primary School","p":"529392","t":"Government School","u":"http://www.chongzhengpri.moe.edu.sg"},"type":"Feature"},{"geometry":{"coordinates":[103.79345,1.42657],"type":"Point"},"properties":{"g":"","l":"S","n":"Christ Church Secondary School","p":"737924","t":"Government-Aided School","u":"http://www.christchurchsec.moe.edu.sg"},"type":"Feature"},{"geometry":{"coordinates":[103.74183,1.37776],"type":"Point"},"properties":{"g":"","l":"P","n":"Chua Chu Kang Primary School","p":"689905","t":"Government School","u":"http://www.chuachukangpri.moe.edu.sg"},"type":"Feature"},{"geometry":{"coordinates":[103.7551,1.38333],"type":"Point"},"properties":{"g":"","l":"S","n":"Chua Chu Kang Secondary School","p":"688848","t":"Government School","u":"http://www.chuachukangsec.moe.edu.sg"},"type":"Feature"},{"geometry":{"coordinates":[103.89165,1.30509],"type":"Point"},"properties":{"g":"","l":"S","n":"Chung Cheng High School (Main)","p":"439012","t":"Government-Aided School","u":"http://www.chungchenghighmain.moe.edu.sg"},"type":"Feature"},{"geometry":{"coordinates":[103.83739,1.41923],"type":"Point"},"properties":{"g":"","l":"S","n":"Chung Cheng High School (Yishun)","p":"768547","t":"Government-Aided School","u":"http://www.chungchenghighyishun.moe.edu.sg"},"type":"Feature"},{"geometry":{"coordinates":[103.76314,1.31506],"type":"Point"},"properties":{"g":"","l":"P","n":"Clementi Primary School","p":"129903","t":"Government School","u":"http://www.clementipri.moe.edu.sg"},"type":"Feature"},{"geometry":{"coordinates":[103.76202,1.31554],"type":"Point"},"properties":{"g":"","l":"S","n":"Clementi Town Secondary School","p":"129904","t":"Government School","u":"http://www.clementitownsec.moe.edu.sg"},"type":"Feature"},{"geometry":{"coordinates":[103.74564,1.3192],"type":"Point"},"properties":{"g":"","l":"S","n":"Commonwealth Secondary School","p":"608784","t":"Government School","u":"http://www.commonwealthsec.moe.edu.sg"},"type":"Feature"},{"geometry":{"coordinates":[103.89781,1.39445],"type":"Point"},"properties":{"g":"","l":"P","n":"Compassvale Primary School","p":"545091","t":"Government School","u":"http://www.compassvalepri.moe.edu.sg/"},"type":"Feature"},{"geometry":{"coordinates":[103.89985,1.39614],"type":"Point"},"properties":{"g":"","l":"S","n":"Compassvale Secondary School","p":"545083","t":"Government School","u":"http://www.compassvalesec.moe.edu.sg"},"type":"Feature"},{"geometry":{"coordinates":[103.73623,1.38001],"type":"Point"},"properties":{"g":"","l":"P","n":"Concord Primary School","p":"689814","t":"Government School","u":"http://www.concordpri.moe.edu.sg/"},"type":"Feature"},{"geometry":{"coordinates":[103.70759,1.351],"type":"Point"},"properties":{"g":"","l":"P","n":"Corporation Primary School","p":"648347","t":"Government School","u":"http://www.corporationpri.moe.edu.sg"},"type":"Feature"},{"geometry":{"coordinates":[103.81754,1.29332],"type":"Point"},"properties":{"g":"Girls","l":"S","n":"Crescent Girls' School","p":"247961","t":"Government School","u":"http://www.crescent.edu.sg"},"type":"Feature"},{"geometry":{"coordinates":[103.74263,1.34312],"type":"Point"},"properties":{"g":"","l":"S","n":"Crest Secondary School","p":"609561","t":"Specialised Independent School","u":"http://www.crestsec.edu.sg"},"type":"Feature"},{"geometry":{"coordinates":[103.92127,1.33546],"type":"Point"},"properties":{"g":"","l":"P","n":"Damai Primary School","p":"479226","t":"Government School","u":"http://www.damaipri.moe.edu.sg"},"type":"Feature"},{"geometry":{"coordinates":[103.92709,1.33693],"type":"Point"},"properties":{"g":"","l":"S","n":"Damai Secondary School","p":"479229","t":"Government School","u":"http://www.damaisec.moe.edu.sg"},"type":"Feature"},{"geometry":{"coordinates":[103.74847,1.35918],"type":"Point"},"properties":{"g":"","l":"P","n":"Dazhong Primary School","p":"659441","t":"Government School","u":"http://www.dazhongpri.moe.edu.sg"},"type":"Feature"},{"geometry":{"coordinates":[103.7432,1.39471],"type":"Point"},"properties":{"g":"","l":"P","n":"De La Salle School","p":"689285","t":"Government-Aided School","u":"http://www.delasalle.moe.edu.sg"},"type":"Feature"},{"geometry":{"coordinates":[103.85255,1.366],"type":"Point"},"properties":{"g":"","l":"S","n":"Deyi Secondary School","p":"569277","t":"Government School","u":"http://www.deyisec.moe.edu.sg"},"type":"Feature"},{"geometry":{"coordinates":[103.74472,1.36358],"type":"Point"},"properties":{"g":"","l":"S","n":"Dunearn Secondary School","p":"659204","t":"Government School","u":"http://www.dunearnsec.moe.edu.sg"},"type":"Feature"},{"geometry":{"coordinates":[103.88294,1.29996],"type":"Point"},"properties":{"g":"","l":"S","n":"Dunman High School","p":"436895","t":"Government School","u":"http://www.dunmanhigh.moe.edu.sg"},"type":"Feature"},{"geometry":{"coordinates":[103.95621,1.36065],"type":"Point"},"properties":{"g":"","l":"S","n":"Dunman Secondary School","p":"529093","t":"Government School","u":"http://www.dunmansec.moe.edu.sg"},"type":"Feature"},{"geometry":{"coordinates":[103.96168,1.35268],"type":"Point"},"properties":{"g":"","l":"P","n":"East Spring Primary School","p":"529258","t":"Government School","u":"http://www.eastspringpri.moe.edu.sg"},"type":"Feature"},{"geometry":{"coordinates":[103.96064,1.35623],"type":"Point"},"properties":{"g":"","l":"S","n":"East Spring Secondary School","p":"529231","t":"Government School","u":"http://www.eastspringsec.moe.edu.sg"},"type":"Feature"},{"geometry":{"coordinates":[103.90785,1.40009],"type":"Point"},"properties":{"g":"","l":"P","n":"Edgefield Primary School","p":"828869","t":"Government School","u":"http://www.edgefieldpri.moe.edu.sg"},"type":"Feature"},{"geometry":{"coordinates":[103.90269,1.40059],"type":"Point"},"properties":{"g":"","l":"S","n":"Edgefield Secondary School","p":"828814","t":"Government School","u":"http://www.edgefieldsec.moe.edu.sg"},"type":"Feature"},{"geometry":{"coordinates":[103.94513,1.37451],"type":"Point"},"properties":{"g":"","l":"P","n":"Elias Park Primary School","p":"518866","t":"Government School","u":"http://www.eliasparkpri.moe.edu.sg"},"type":"Feature"},{"geometry":{"coordinates":[103.81744,1.45404],"type":"Point"},"properties":{"g":"","l":"P","n":"Endeavour Primary School","p":"757521","t":"Government School","u":"https://endeavourpri.moe.edu.sg/"},"type":"Feature"},{"geometry":{"coordinates":[103.84129,1.36214],"type":"Point"},"properties":{"g":"","l":"J","n":"Eunoia Junior College","p":"573838","t":"Government School","u":"http://www.eunoiajc.moe.edu.sg"},"type":"Feature"},{"geometry":{"coordinates":[103.79458,1.44415],"type":"Point"},"properties":{"g":"","l":"P","n":"Evergreen Primary School","p":"738908","t":"Government School","u":"http://www.evergreenpri.moe.edu.sg/"},"type":"Feature"},{"geometry":{"coordinates":[103.79414,1.44149],"type":"Point"},"properties":{"g":"","l":"S","n":"Evergreen Secondary School","p":"738489","t":"Government School","u":"http://www.evergreensec.moe.edu.sg"},"type":"Feature"},{"geometry":{"coordinates":[103.78544,1.30054],"type":"Point"},"properties":{"g":"","l":"P","n":"Fairfield Methodist School (Primary)","p":"139648","t":"Government-Aided School","u":"http://www.fmsp.moe.edu.sg/"},"type":"Feature"},{"geometry":{"coordinates":[103.7841,1.30163],"type":"Point"},"properties":{"g":"","l":"S","n":"Fairfield Methodist School (Secondary)","p":"139649","t":"Government-Aided School","u":"http://www.fairfieldmethodistsec.moe.edu.sg"},"type":"Feature"},{"geometry":{"coordinates":[103.85077,1.31237],"type":"Point"},"properties":{"g":"","l":"P","n":"Farrer Park Primary School","p":"217567","t":"Government School","u":"http://www.farrerparkpri.moe.edu.sg"},"type":"Feature"},{"geometry":{"coordinates":[103.93171,1.32981],"type":"Point"},"properties":{"g":"","l":"P","n":"Fengshan Primary School","p":"469680","t":"Government School","u":"http://www.fengshanpri.moe.edu.sg"},"type":"Feature"},{"geometry":{"coordinates":[103.88033,1.39727],"type":"Point"},"properties":{"g":"","l":"P","n":"Fern Green Primary School","p":"797538","t":"Government School","u":"www.ferngreenpri.moe.edu.sg"},"type":"Feature"},{"geometry":{"coordinates":[103.87445,1.3903],"type":"Point"},"properties":{"g":"","l":"P","n":"Fernvale Primary School","p":"797701","t":"Government School","u":"www.fernvalepri.moe.edu.sg"},"type":"Feature"},{"geometry":{"coordinates":[103.85553,1.34032],"type":"Point"},"properties":{"g":"","l":"P","n":"First Toa Payoh Primary School","p":"319252","t":"Government School","u":"http://www.firsttoapayohpri.moe.edu.sg"},"type":"Feature"},{"geometry":{"coordinates":[103.6997,1.33641],"type":"Point"},"properties":{"g":"","l":"P","n":"Frontier Primary School","p":"648200","t":"Government School","u":"http://www.frontierpri.moe.edu.sg"},"type":"Feature"},{"geometry":{"coordinates":[103.77819,1.43048],"type":"Point"},"properties":{"g":"","l":"P","n":"Fuchun Primary School","p":"739063","t":"Government School","u":"http://www.fuchunpri.moe.edu.sg"},"type":"Feature"},{"geometry":{"coordinates":[103.7361,1.3365],"type":"Point"},"properties":{"g":"","l":"P","n":"Fuhua Primary School","p":"609647","t":"Government School","u":"http://www.fuhuapri.moe.edu.sg"},"type":"Feature"},{"geometry":{"coordinates":[103.72652,1.34701],"type":"Point"},"properties":{"g":"","l":"S","n":"Fuhua Secondary School","p":"649410","t":"Government School","u":"http://www.fuhuasec.moe.edu.sg"},"type":"Feature"},{"geometry":{"coordinates":[103.81555,1.2856],"type":"Point"},"properties":{"g":"","l":"P","n":"Gan Eng Seng Primary School","p":"158901","t":"Government School","u":"http://www.ganengsengpri.moe.edu.sg"},"type":"Feature"},{"geometry":{"coordinates":[103.82373,1.28907],"type":"Point"},"properties":{"g":"","l":"S","n":"Gan Eng Seng School","p":"159561","t":"Government School","u":"http://www.ganengsengsch.moe.edu.sg"},"type":"Feature"},{"geometry":{"coordinates":[103.88385,1.31759],"type":"Point"},"properties":{"g":"","l":"P","n":"Geylang Methodist School (Primary)","p":"389706","t":"Government-Aided School","u":"www.geylangmethodistpri.moe.edu.sg"},"type":"Feature"},{"geometry":{"coordinates":[103.88266,1.31765],"type":"Point"},"properties":{"g":"","l":"S","n":"Geylang Methodist School (Secondary)","p":"389705","t":"Government-Aided School","u":"http://www.geylangmethodistsec.moe.edu.sg"},"type":"Feature"},{"geometry":{"coordinates":[103.94912,1.35724],"type":"Point"},"properties":{"g":"","l":"P","n":"Gongshang Primary School","p":"529176","t":"Government School","u":"http://www.gongshangpri.moe.edu.sg"},"type":"Feature"},{"geometry":{"coordinates":[103.91233,1.39648],"type":"Point"},"properties":{"g":"","l":"P","n":"Greendale Primary School","p":"828848","t":"Government School","u":"http://www.greendalepri.moe.edu.sg"},"type":"Feature"},{"geometry":{"coordinates":[103.9117,1.39696],"type":"Point"},"properties":{"g":"","l":"S","n":"Greendale Secondary School","p":"828866","t":"Government School","u":"http://www.greendalesec.moe.edu.sg"},"type":"Feature"},{"geometry":{"coordinates":[103.76779,1.38589],"type":"Point"},"properties":{"g":"","l":"P","n":"Greenridge Primary School","p":"677744","t":"Government School","u":"http://www.greenridgepri.moe.edu.sg"},"type":"Feature"},{"geometry":{"coordinates":[103.764,1.3756],"type":"Point"},"properties":{"g":"","l":"S","n":"Greenridge Secondary School","p":"678972","t":"Government School","u":"http://www.greenridgesec.moe.edu.sg"},"type":"Feature"},{"geometry":{"coordinates":[103.80473,1.4399],"type":"Point"},"properties":{"g":"","l":"P","n":"Greenwood Primary School","p":"737942","t":"Government School","u":"http://www.greenwoodpri.moe.edu.sg"},"type":"Feature"},{"geometry":{"coordinates":[103.85021,1.34441],"type":"Point"},"properties":{"g":"","l":"S","n":"Guangyang Secondary School","p":"579807","t":"Government School","u":"http://guangyangsec.moe.edu.sg"},"type":"Feature"},{"geometry":{"coordinates":[103.95454,1.37434],"type":"Point"},"properties":{"g":"","l":"S","n":"Hai Sing Catholic School","p":"519421","t":"Government-Aided School","u":"http://www.haisingcatholic.moe.edu.sg"},"type":"Feature"},{"geometry":{"coordinates":[103.9029,1.31194],"type":"Point"},"properties":{"g":"Girls","l":"P","n":"Haig Girls' School","p":"427072","t":"Government School","u":"http://www.haiggirls.moe.edu.sg"},"type":"Feature"},{"geometry":{"coordinates":[103.7843,1.31668],"type":"Point"},"properties":{"g":"","l":"P","n":"Henry Park Primary School","p":"278790","t":"Government School","u":"http://www.henryparkpri.moe.edu.sg"},"type":"Feature"},{"geometry":{"coordinates":[103.75299,1.35274],"type":"Point"},"properties":{"g":"","l":"S","n":"Hillgrove Secondary School","p":"659250","t":"Government School","u":"http://www.hillgrovesec.moe.edu.sg"},"type":"Feature"},{"geometry":{"coordinates":[103.8964,1.37155],"type":"Point"},"properties":{"g":"","l":"S","n":"Holy Innocents' High School","p":"534786","t":"Government-Aided School","u":"http://www.holyinnocentshigh.moe.edu.sg"},"type":"Feature"},{"geometry":{"coordinates":[103.89411,1.36694],"type":"Point"},"properties":{"g":"","l":"P","n":"Holy Innocents' Primary School","p":"536451","t":"Government-Aided School","u":"http://www.holyinnocentspri.moe.edu.sg/"},"type":"Feature"},{"geometry":{"coordinates":[103.85763,1.32176],"type":"Point"},"properties":{"g":"","l":"P","n":"Hong Wen School","p":"327829","t":"Government-Aided School","u":"http://www.hongwen.moe.edu.sg"},"type":"Feature"},{"geometry":{"coordinates":[103.9134,1.39955],"type":"Point"},"properties":{"g":"","l":"P","n":"Horizon Primary School","p":"828819","t":"Government School","u":"http://www.horizonpri.moe.edu.sg"},"type":"Feature"},{"geometry":{"coordinates":[103.88081,1.37738],"type":"Point"},"properties":{"g":"","l":"P","n":"Hougang Primary School","p":"534238","t":"Government School","u":"http://www.hougangpri.moe.edu.sg/"},"type":"Feature"},{"geometry":{"coordinates":[103.88254,1.37763],"type":"Point"},"properties":{"g":"","l":"S","n":"Hougang Secondary School","p":"534256","t":"Government School","u":"http://www.hougangsec.moe.edu.sg"},"type":"Feature"},{"geometry":{"coordinates":[103.72183,1.35234],"type":"Point"},"properties":{"g":"","l":"S","n":"Hua Yi Secondary School","p":"649371","t":"Government School","u":"http://www.huayisec.moe.edu.sg"},"type":"Feature"},{"geometry":{"coordinates":[103.84424,1.42697],"type":"Point"},"properties":{"g":"","l":"P","n":"Huamin Primary School","p":"768857","t":"Government School","u":"http://www.huaminpri.moe.edu.sg"},"type":"Feature"},{"geometry":{"coordinates":[103.80573,1.32561],"type":"Point"},"properties":{"g":"","l":"S","n":"Hwa Chong Institution","p":"269734","t":"Independent School","u":"https://www.hci.edu.sg/"},"type":"Feature"},{"geometry":{"coordinates":[103.79061,1.42897],"type":"Point"},"properties":{"g":"","l":"P","n":"Innova Primary School","p":"737888","t":"Government School","u":"http://www.innovapri.moe.edu.sg/"},"type":"Feature"},{"geometry":{"coordinates":[103.83043,1.42769],"type":"Point"},"properties":{"g":"","l":"P","n":"Jiemin Primary School","p":"768515","t":"Government School","u":"http://www.jieminpri.moe.edu.sg"},"type":"Feature"},{"geometry":{"coordinates":[103.85213,1.37223],"type":"Point"},"properties":{"g":"","l":"P","n":"Jing Shan Primary School","p":"569228","t":"Government School","u":"http://www.jingshanpri.moe.edu.sg"},"type":"Feature"},{"geometry":{"coordinates":[103.93922,1.34787],"type":"Point"},"properties":{"g":"","l":"P","n":"Junyuan Primary School","p":"528906","t":"Government School","u":"https://junyuanpri.moe.edu.sg"},"type":"Feature"},{"geometry":{"coordinates":[103.93389,1.35361],"type":"Point"},"properties":{"g":"","l":"S","n":"Junyuan Secondary School","p":"528933","t":"Government School","u":"https://junyuansec.moe.edu.sg/"},"type":"Feature"},{"geometry":{"coordinates":[103.75437,1.38437],"type":"Point"},"properties":{"g":"","l":"J","n":"Jurong Pioneer Junior College","p":"688258","t":"Government School","u":"http://jpjc.moe.edu.sg"},"type":"Feature"},{"geometry":{"coordinates":[103.73316,1.34844],"type":"Point"},"properties":{"g":"","l":"P","n":"Jurong Primary School","p":"609476","t":"Government School","u":"http://www.jurongpri.moe.edu.sg"},"type":"Feature"},{"geometry":{"coordinates":[103.72395,1.33002],"type":"Point"},"properties":{"g":"","l":"S","n":"Jurong Secondary School","p":"618652","t":"Government School","u":"http://www.jurongsec.moe.edu.sg"},"type":"Feature"},{"geometry":{"coordinates":[103.6988,1.33918],"type":"Point"},"properties":{"g":"","l":"P","n":"Jurong West Primary School","p":"648368","t":"Government School","u":"http://www.jurongwestpri.moe.edu.sg"},"type":"Feature"},{"geometry":{"coordinates":[103.7021,1.33526],"type":"Point"},"properties":{"g":"","l":"S","n":"Jurong West Secondary School","p":"648348","t":"Government School","u":"https://www.jurongwestsec.moe.edu.sg"},"type":"Feature"},{"geometry":{"coordinates":[103.72891,1.35129],"type":"Point"},"properties":{"g":"","l":"S","n":"Jurongville Secondary School","p":"609790","t":"Government School","u":"http://www.jurongvillesec.moe.edu.sg"},"type":"Feature"},{"geometry":{"coordinates":[103.68731,1.33872],"type":"Point"},"properties":{"g":"","l":"S","n":"Juying Secondary School","p":"649038","t":"Government School","u":"http://juyingsec.moe.edu.sg"},"type":"Feature"},{"geometry":{"coordinates":[103.75645,1.34553],"type":"Point"},"properties":{"g":"","l":"P","n":"Keming Primary School","p":"659762","t":"Government School","u":"http://www.kemingpri.moe.edu.sg"},"type":"Feature"},{"geometry":{"coordinates":[103.76489,1.30123],"type":"Point"},"properties":{"g":"","l":"S","n":"Kent Ridge Secondary School","p":"127368","t":"Government School","u":"http://www.kentridgesec.moe.edu.sg"},"type":"Feature"},{"geometry":{"coordinates":[103.84715,1.33734],"type":"Point"},"properties":{"g":"","l":"P","n":"Kheng Cheng School","p":"319580","t":"Government-Aided School","u":"http://www.khengcheng.moe.edu.sg/"},"type":"Feature"},{"geometry":{"coordinates":[103.88835,1.311],"type":"Point"},"properties":{"g":"","l":"P","n":"Kong Hwa School","p":"399772","t":"Government-Aided School","u":"http://www.konghwa.moe.edu.sg"},"type":"Feature"},{"geometry":{"coordinates":[103.74736,1.39356],"type":"Point"},"properties":{"g":"","l":"P","n":"Kranji Primary School","p":"689189","t":"Government School","u":"http://kranjipri.moe.edu.sg"},"type":"Feature"},{"geometry":{"coordinates":[103.74119,1.39005],"type":"Point"},"properties":{"g":"","l":"S","n":"Kranji Secondary School","p":"689333","t":"Government School","u":"http://www.kranjisec.moe.edu.sg"},"type":"Feature"},{"geometry":{"coordinates":[103.85502,1.3494],"type":"Point"},"properties":{"g":"","l":"P","n":"Kuo Chuan Presbyterian Primary School","p":"579793","t":"Government-Aided School","u":"http://www.kuochuanpresbyterianpri.moe.edu.sg"},"type":"Feature"},{"geometry":{"coordinates":[103.85498,1.35017],"type":"Point"},"properties":{"g":"","l":"S","n":"Kuo Chuan Presbyterian Secondary School","p":"579795","t":"Government-Aided School","u":"http://www.kuochuanpresbyteriansec.moe.edu.sg"},"type":"Feature"},{"geometry":{"coordinates":[103.71809,1.3382],"type":"Point"},"properties":{"g":"","l":"P","n":"Lakeside Primary School","p":"618310","t":"Government School","u":"http://www.lakesidepri.moe.edu.sg/"},"type":"Feature"},{"geometry":{"coordinates":[103.75417,1.35424],"type":"Point"},"properties":{"g":"","l":"P","n":"Lianhua Primary School","p":"659243","t":"Government School","u":"http://www.lianhuapri.moe.edu.sg/"},"type":"Feature"},{"geometry":{"coordinates":[103.95694,1.36658],"type":"Point"},"properties":{"g":"","l":"S","n":"Loyang View Secondary School","p":"519073","t":"Government School","u":"http://www.loyangviewsec.moe.edu.sg"},"type":"Feature"},{"geometry":{"coordinates":[103.9013,1.32847],"type":"Point"},"properties":{"g":"","l":"P","n":"Maha Bodhi School","p":"408931","t":"Government-Aided School","u":"http://www.mahabodhi.moe.edu.sg/"},"type":"Feature"},{"geometry":{"coordinates":[103.90172,1.32747],"type":"Point"},"properties":{"g":"","l":"S","n":"Manjusri Secondary School","p":"408940","t":"Government-Aided School","u":"http://www.manjusrisec.moe.edu.sg"},"type":"Feature"},{"geometry":{"coordinates":[103.87785,1.34139],"type":"Point"},"properties":{"g":"Boys","l":"P","n":"Maris Stella High School","p":"368051","t":"Government-Aided School","u":"http://www.marisstellahigh.moe.edu.sg"},"type":"Feature"},{"geometry":{"coordinates":[103.77364,1.43384],"type":"Point"},"properties":{"g":"","l":"P","n":"Marsiling Primary School","p":"738927","t":"Government School","u":"http://www.marsilingpri.moe.edu.sg"},"type":"Feature"},{"geometry":{"coordinates":[103.77601,1.43664],"type":"Point"},"properties":{"g":"","l":"S","n":"Marsiling Secondary School","p":"739110","t":"Government School","u":"http://www.marsilingsec.moe.edu.sg"},"type":"Feature"},{"geometry":{"coordinates":[103.84002,1.34037],"type":"Point"},"properties":{"g":"Girls","l":"P","n":"Marymount Convent School","p":"297754","t":"Government-Aided School","u":"http://www.marymountconvent.moe.edu.sg"},"type":"Feature"},{"geometry":{"coordinates":[103.84325,1.37638],"type":"Point"},"properties":{"g":"","l":"P","n":"Mayflower Primary School","p":"569878","t":"Government School","u":"http://www.mayflowerpri.moe.edu.sg"},"type":"Feature"},{"geometry":{"coordinates":[103.83536,1.36827],"type":"Point"},"properties":{"g":"","l":"S","n":"Mayflower Secondary School","p":"569384","t":"Government School","u":"http://www.mayflowersec.moe.edu.sg"},"type":"Feature"},{"geometry":{"coordinates":[103.90859,1.39462],"type":"Point"},"properties":{"g":"","l":"P","n":"Mee Toh School","p":"828867","t":"Government-Aided School","u":"http://www.meetoh.moe.edu.sg/"},"type":"Feature"},{"geometry":{"coordinates":[103.93489,1.37553],"type":"Point"},"properties":{"g":"","l":"P","n":"Meridian Primary School","p":"518798","t":"Government School","u":"http://www.meridianpri.moe.edu.sg/"},"type":"Feature"},{"geometry":{"coordinates":[103.94897,1.36725],"type":"Point"},"properties":{"g":"","l":"S","n":"Meridian Secondary School","p":"518901","t":"Government School","u":"http://www.meridiansec.moe.edu.sg"},"type":"Feature"},{"geometry":{"coordinates":[103.78339,1.33295],"type":"Point"},"properties":{"g":"Girls","l":"P","n":"Methodist Girls' School (Primary)","p":"599986","t":"Government-Aided School","u":"https://www.mgs.moe.edu.sg/"},"type":"Feature"},{"geometry":{"coordinates":[103.78339,1.33295],"type":"Point"},"properties":{"g":"Girls","l":"S","n":"Methodist Girls' School (Secondary)","p":"599986","t":"Independent School","u":"http://www.mgs.moe.edu.sg"},"type":"Feature"},{"geometry":{"coordinates":[103.74159,1.35032],"type":"Point"},"properties":{"g":"","l":"J","n":"Millennia Institute","p":"658965","t":"Government School","u":"http://www.millenniainstitute.moe.edu.sg"},"type":"Feature"},{"geometry":{"coordinates":[103.88931,1.37382],"type":"Point"},"properties":{"g":"Boys","l":"P","n":"Montfort Junior School","p":"538786","t":"Government-Aided School","u":"http://www.montfortjunior.moe.edu.sg/"},"type":"Feature"},{"geometry":{"coordinates":[103.88893,1.37396],"type":"Point"},"properties":{"g":"Boys","l":"S","n":"Montfort Secondary School","p":"538785","t":"Government-Aided School","u":"https://montfortsec.moe.edu.sg/"},"type":"Feature"},{"geometry":{"coordinates":[103.77015,1.30601],"type":"Point"},"properties":{"g":"","l":"S","n":"NUS High School Of Mathematics And Science","p":"129957","t":"Specialised School","u":"www.nushigh.edu.sg"},"type":"Feature"},{"geometry":{"coordinates":[103.89,1.3888],"type":"Point"},"properties":{"g":"","l":"S","n":"Nan Chiau High School","p":"545079","t":"Government-Aided School","u":"http://www.nanchiauhigh.moe.edu.sg"},"type":"Feature"},{"geometry":{"coordinates":[103.89118,1.39221],"type":"Point"},"properties":{"g":"","l":"P","n":"Nan Chiau Primary School","p":"545080","t":"Government-Aided School","u":"http://www.ncps.moe.edu.sg"},"type":"Feature"},{"geometry":{"coordinates":[103.76856,1.3081],"type":"Point"},"properties":{"g":"","l":"S","n":"Nan Hua High School","p":"129956","t":"Government School","u":"http://www.nanhuahigh.moe.edu.sg"},"type":"Feature"},{"geometry":{"coordinates":[103.7611,1.3192],"type":"Point"},"properties":{"g":"","l":"P","n":"Nan Hua Primary School","p":"128806","t":"Government-Aided School","u":"http://www.nanhuapri.moe.edu.sg"},"type":"Feature"},{"geometry":{"coordinates":[103.80242,1.33058],"type":"Point"},"properties":{"g":"Girls","l":"S","n":"Nanyang Girls' High School","p":"288683","t":"Independent School","u":"https://www.nygh.edu.sg"},"type":"Feature"},{"geometry":{"coordinates":[103.8665,1.35028],"type":"Point"},"properties":{"g":"","l":"J","n":"Nanyang Junior College","p":"556111","t":"Government-Aided School","u":"http://www.nanyangjc.moe.edu.sg/"},"type":"Feature"},{"geometry":{"coordinates":[103.80775,1.32085],"type":"Point"},"properties":{"g":"","l":"P","n":"Nanyang Primary School","p":"268097","t":"Government-Aided School","u":"http://www.nyps.moe.edu.sg"},"type":"Feature"},{"geometry":{"coordinates":[103.80411,1.33029],"type":"Point"},"properties":{"g":"","l":"S","n":"National Junior College","p":"288913","t":"Government School","u":"http://www.nationaljc.moe.edu.sg"},"type":"Feature"},{"geometry":{"coordinates":[103.83879,1.41631],"type":"Point"},"properties":{"g":"","l":"P","n":"Naval Base Primary School","p":"769028","t":"Government School","u":"http://www.navalbasepri.moe.edu.sg/"},"type":"Feature"},{"geometry":{"coordinates":[103.83105,1.41938],"type":"Point"},"properties":{"g":"","l":"S","n":"Naval Base Secondary School","p":"768689","t":"Government School","u":"http://www.navalbasesec.moe.edu.sg"},"type":"Feature"},{"geometry":{"coordinates":[103.8001,1.29964],"type":"Point"},"properties":{"g":"","l":"P","n":"New Town Primary School","p":"148812","t":"Government School","u":"http://www.newtownpri.moe.edu.sg/"},"type":"Feature"},{"geometry":{"coordinates":[103.77319,1.30978],"type":"Point"},"properties":{"g":"","l":"S","n":"New Town Secondary School","p":"139657","t":"Government School","u":"http://www.newtownsec.moe.edu.sg"},"type":"Feature"},{"geometry":{"coordinates":[103.91746,1.30553],"type":"Point"},"properties":{"g":"","l":"P","n":"Ngee Ann Primary School","p":"449149","t":"Government-Aided School","u":"http://www.ngeeannpri.moe.edu.sg"},"type":"Feature"},{"geometry":{"coordinates":[103.95675,1.35448],"type":"Point"},"properties":{"g":"","l":"S","n":"Ngee Ann Secondary School","p":"529283","t":"Government-Aided School","u":"http://www.ngeeannsec.moe.edu.sg"},"type":"Feature"},{"geometry":{"coordinates":[103.9032,1.38706],"type":"Point"},"properties":{"g":"","l":"P","n":"North Spring Primary School","p":"545088","t":"Government School","u":"http://www.northspringpri.moe.edu.sg"},"type":"Feature"},{"geometry":{"coordinates":[103.84819,1.42752],"type":"Point"},"properties":{"g":"","l":"P","n":"North View Primary School","p":"768960","t":"Government School","u":"http://www.northviewpri.moe.edu.sg"},"type":"Feature"},{"geometry":{"coordinates":[103.89596,1.38282],"type":"Point"},"properties":{"g":"","l":"P","n":"North Vista Primary School","p":"544974","t":"Government School","u":"http://www.northvistapri.moe.edu.sg"},"type":"Feature"},{"geometry":{"coordinates":[103.89919,1.38113],"type":"Point"},"properties":{"g":"","l":"S","n":"North Vista Secondary School","p":"545081","t":"Government School","u":"http://www.northvistasec.moe.edu.sg"},"type":"Feature"},{"geometry":{"coordinates":[103.84515,1.42081],"type":"Point"},"properties":{"g":"","l":"S","n":"Northbrooks Secondary School","p":"768692","t":"Government School","u":"http://www.northbrookssec.moe.edu.sg"},"type":"Feature"},{"geometry":{"coordinates":[103.84093,1.42097],"type":"Point"},"properties":{"g":"","l":"P","n":"Northland Primary School","p":"769026","t":"Government School","u":"http://www.northlandpri.moe.edu.sg"},"type":"Feature"},{"geometry":{"coordinates":[103.8401,1.4358],"type":"Point"},"properties":{"g":"","l":"S","n":"Northland Secondary School","p":"768578","t":"Government School","u":"http://www.northlandsec.moe.edu.sg"},"type":"Feature"},{"geometry":{"coordinates":[103.85576,1.3191],"type":"Point"},"properties":{"g":"","l":"S","n":"Northlight School","p":"327830","t":"Specialised Independent School","u":"https://www.nls.edu.sg"},"type":"Feature"},{"geometry":{"coordinates":[103.8142,1.45661],"type":"Point"},"properties":{"g":"","l":"P","n":"Northoaks Primary School","p":"757622","t":"Government School","u":"http://www.northoakspri.moe.edu.sg"},"type":"Feature"},{"geometry":{"coordinates":[103.90442,1.41814],"type":"Point"},"properties":{"g":"","l":"P","n":"Northshore Primary School","p":"828671","t":"Government School","u":"https://northshorepri.moe.edu.sg/"},"type":"Feature"},{"geometry":{"coordinates":[103.91112,1.40462],"type":"Point"},"properties":{"g":"","l":"P","n":"Oasis Primary School","p":"828716","t":"Government School","u":"http://www.oasispri.moe.edu.sg/"},"type":"Feature"},{"geometry":{"coordinates":[103.92379,1.31932],"type":"Point"},"properties":{"g":"","l":"P","n":"Opera Estate Primary School","p":"458436","t":"Government School","u":"http://www.operaestatepri.moe.edu.sg"},"type":"Feature"},{"geometry":{"coordinates":[103.83786,1.41532],"type":"Point"},"properties":{"g":"","l":"S","n":"Orchid Park Secondary School","p":"768454","t":"Government School","u":"http://www.orchidparksec.moe.edu.sg"},"type":"Feature"},{"geometry":{"coordinates":[103.89123,1.39775],"type":"Point"},"properties":{"g":"","l":"S","n":"Outram Secondary School","p":"549936","t":"Government School","u":"http://www.outramsec.moe.edu.sg"},"type":"Feature"},{"geometry":{"coordinates":[103.89135,1.38377],"type":"Point"},"properties":{"g":"","l":"P","n":"Palm View Primary School","p":"544822","t":"Government School","u":"http://www.palmviewpri.moe.edu.sg"},"type":"Feature"},{"geometry":{"coordinates":[103.93954,1.37738],"type":"Point"},"properties":{"g":"","l":"P","n":"Park View Primary School","p":"519524","t":"Government School","u":"http://www.parkviewpri.moe.edu.sg"},"type":"Feature"},{"geometry":{"coordinates":[103.95973,1.37284],"type":"Point"},"properties":{"g":"","l":"S","n":"Pasir Ris Crest Secondary School","p":"518934","t":"Government School","u":"http://www.prcss.moe.edu.sg"},"type":"Feature"},{"geometry":{"coordinates":[103.96281,1.37242],"type":"Point"},"properties":{"g":"","l":"P","n":"Pasir Ris Primary School","p":"518968","t":"Government School","u":"http://www.pasirrispri.moe.edu.sg"},"type":"Feature"},{"geometry":{"coordinates":[103.94896,1.35423],"type":"Point"},"properties":{"g":"","l":"S","n":"Pasir Ris Secondary School","p":"529400","t":"Government School","u":"https://pasirrissec.moe.edu.sg"},"type":"Feature"},{"geometry":{"coordinates":[103.88497,1.34947],"type":"Point"},"properties":{"g":"Girls","l":"P","n":"Paya Lebar Methodist Girls' School (Primary)","p":"536741","t":"Government-Aided School","u":"http://www.payalebarmethodistgirlspri.moe.edu.sg/"},"type":"Feature"},{"geometry":{"coordinates":[103.88512,1.35097],"type":"Point"},"properties":{"g":"Girls","l":"S","n":"Paya Lebar Methodist Girls' School (Secondary)","p":"536742","t":"Government-Aided School","u":"http://www.plmgss.moe.edu.sg"},"type":"Feature"},{"geometry":{"coordinates":[103.85559,1.33737],"type":"Point"},"properties":{"g":"","l":"P","n":"Pei Chun Public School","p":"319320","t":"Government-Aided School","u":"http://www.peichunpublic.moe.edu.sg"},"type":"Feature"},{"geometry":{"coordinates":[103.77611,1.33806],"type":"Point"},"properties":{"g":"","l":"P","n":"Pei Hwa Presbyterian Primary School","p":"597610","t":"Government-Aided School","u":"http://www.peihwapresbyterianpri.moe.edu.sg/"},"type":"Feature"},{"geometry":{"coordinates":[103.87846,1.39038],"type":"Point"},"properties":{"g":"","l":"S","n":"Pei Hwa Secondary School","p":"797702","t":"Government School","u":"http://www.peihwasec.moe.edu.sg"},"type":"Feature"},{"geometry":{"coordinates":[103.7676,1.3162],"type":"Point"},"properties":{"g":"","l":"P","n":"Pei Tong Primary School","p":"129857","t":"Government School","u":"http://www.peitongpri.moe.edu.sg/"},"type":"Feature"},{"geometry":{"coordinates":[103.87001,1.35952],"type":"Point"},"properties":{"g":"","l":"S","n":"Peicai Secondary School","p":"556094","t":"Government School","u":"http://www.peicaisec.moe.edu.sg"},"type":"Feature"},{"geometry":{"coordinates":[103.83022,1.36666],"type":"Point"},"properties":{"g":"","l":"S","n":"Peirce Secondary School","p":"575566","t":"Government School","u":"http://www.peircesec.moe.edu.sg"},"type":"Feature"},{"geometry":{"coordinates":[103.83042,1.41723],"type":"Point"},"properties":{"g":"","l":"P","n":"Peiying Primary School","p":"768687","t":"Government School","u":"http://www.peiyingpri.moe.edu.sg"},"type":"Feature"},{"geometry":{"coordinates":[103.73279,1.35443],"type":"Point"},"properties":{"g":"","l":"P","n":"Pioneer Primary School","p":"699915","t":"Government School","u":"http://www.pioneerpri.moe.edu.sg"},"type":"Feature"},{"geometry":{"coordinates":[103.93525,1.35765],"type":"Point"},"properties":{"g":"","l":"P","n":"Poi Ching School","p":"529067","t":"Government-Aided School","u":"http://www.poiching.moe.edu.sg"},"type":"Feature"},{"geometry":{"coordinates":[103.84315,1.38201],"type":"Point"},"properties":{"g":"","l":"S","n":"Presbyterian High School","p":"569845","t":"Government-Aided School","u":"http://www.presbyterian.moe.edu.sg"},"type":"Feature"},{"geometry":{"coordinates":[103.74102,1.3492],"type":"Point"},"properties":{"g":"","l":"P","n":"Princess Elizabeth Primary School","p":"659163","t":"Government School","u":"http://www.princesselizabethpri.moe.edu.sg"},"type":"Feature"},{"geometry":{"coordinates":[103.8988,1.4116],"type":"Point"},"properties":{"g":"","l":"P","n":"Punggol Cove Primary School","p":"828674","t":"Government School","u":"https://punggolcovepri.moe.edu.sg/"},"type":"Feature"},{"geometry":{"coordinates":[103.8988,1.40187],"type":"Point"},"properties":{"g":"","l":"P","n":"Punggol Green Primary School","p":"828772","t":"Government School","u":"http://www.punggolgreenpri.moe.edu.sg"},"type":"Feature"},{"geometry":{"coordinates":[103.89451,1.37779],"type":"Point"},"properties":{"g":"","l":"P","n":"Punggol Primary School","p":"538787","t":"Government School","u":"http://www.punggolpri.moe.edu.sg/"},"type":"Feature"},{"geometry":{"coordinates":[103.90921,1.40206],"type":"Point"},"properties":{"g":"","l":"S","n":"Punggol Secondary School","p":"828870","t":"Government School","u":"http://www.punggolsec.moe.edu.sg"},"type":"Feature"},{"geometry":{"coordinates":[103.90516,1.40515],"type":"Point"},"properties":{"g":"","l":"P","n":"Punggol View Primary School","p":"828845","t":"Government School","u":"http://www.punggolviewpri.moe.edu.sg"},"type":"Feature"},{"geometry":{"coordinates":[103.75674,1.31325],"type":"Point"},"properties":{"g":"","l":"P","n":"Qifa Primary School","p":"128104","t":"Government School","u":"http://www.qifapri.moe.edu.sg"},"type":"Feature"},{"geometry":{"coordinates":[103.78834,1.44204],"type":"Point"},"properties":{"g":"","l":"P","n":"Qihua Primary School","p":"738525","t":"Government School","u":"http://www.qihuapri.moe.edu.sg"},"type":"Feature"},{"geometry":{"coordinates":[103.80755,1.29559],"type":"Point"},"properties":{"g":"","l":"P","n":"Queenstown Primary School","p":"149303","t":"Government School","u":"http://www.queenstownpri.moe.edu.sg"},"type":"Feature"},{"geometry":{"coordinates":[103.81319,1.29352],"type":"Point"},"properties":{"g":"","l":"S","n":"Queenstown Secondary School","p":"148800","t":"Government School","u":"http://www.queenstownsec.moe.edu.sg"},"type":"Feature"},{"geometry":{"coordinates":[103.80221,1.30022],"type":"Point"},"properties":{"g":"","l":"S","n":"Queensway Secondary School","p":"149295","t":"Government School","u":"http://www.queenswaysec.moe.edu.sg"},"type":"Feature"},{"geometry":{"coordinates":[103.82419,1.27496],"type":"Point"},"properties":{"g":"","l":"P","n":"Radin Mas Primary School","p":"99840","t":"Government School","u":"https://www.radinmaspri.moe.edu.sg/"},"type":"Feature"},{"geometry":{"coordinates":[103.80644,1.3294],"type":"Point"},"properties":{"g":"Girls","l":"P","n":"Raffles Girls' Primary School","p":"289072","t":"Government School","u":"http://www.rafflesgirlspri.moe.edu.sg"},"type":"Feature"},{"geometry":{"coordinates":[103.84313,1.34217],"type":"Point"},"properties":{"g":"Girls","l":"S","n":"Raffles Girls' School (Secondary)","p":"318871","t":"Independent School","u":"http://www.rgs.edu.sg"},"type":"Feature"},{"geometry":{"coordinates":[103.84362,1.34629],"type":"Point"},"properties":{"g":"","l":"S","n":"Raffles Institution","p":"575954","t":"Independent School","u":"http://www.ri.edu.sg"},"type":"Feature"},{"geometry":{"coordinates":[103.93433,1.33324],"type":"Point"},"properties":{"g":"","l":"P","n":"Red Swastika School","p":"469719","t":"Government-Aided School","u":"http://www.redswastika.moe.edu.sg"},"type":"Feature"},{"geometry":{"coordinates":[103.75103,1.39328],"type":"Point"},"properties":{"g":"","l":"S","n":"Regent Secondary School","p":"689621","t":"Government School","u":"http://regentsec.moe.edu.sg"},"type":"Feature"},{"geometry":{"coordinates":[103.70819,1.3446],"type":"Point"},"properties":{"g":"","l":"S","n":"River Valley High School","p":"649961","t":"Government School","u":"https://rivervalleyhigh.moe.edu.sg/"},"type":"Feature"},{"geometry":{"coordinates":[103.83582,1.29422],"type":"Point"},"properties":{"g":"","l":"P","n":"River Valley Primary School","p":"237993","t":"Government School","u":"http://www.rivervalleypri.moe.edu.sg"},"type":"Feature"},{"geometry":{"coordinates":[103.80183,1.44705],"type":"Point"},"properties":{"g":"","l":"P","n":"Riverside Primary School","p":"737803","t":"Government School","u":"http://www.riversidepri.moe.edu.sg"},"type":"Feature"},{"geometry":{"coordinates":[103.78831,1.4411],"type":"Point"},"properties":{"g":"","l":"S","n":"Riverside Secondary School","p":"738524","t":"Government School","u":"http://www.riversidesec.moe.edu.sg"},"type":"Feature"},{"geometry":{"coordinates":[103.90456,1.39341],"type":"Point"},"properties":{"g":"","l":"P","n":"Rivervale Primary School","p":"545092","t":"Government School","u":"http://www.rivervalepri.moe.edu.sg/"},"type":"Feature"},{"geometry":{"coordinates":[103.875,1.37289],"type":"Point"},"properties":{"g":"","l":"P","n":"Rosyth School","p":"555855","t":"Government School","u":"https://www.rosyth.moe.edu.sg"},"type":"Feature"},{"geometry":{"coordinates":[103.71846,1.34674],"type":"Point"},"properties":{"g":"","l":"P","n":"Rulang Primary School","p":"649295","t":"Government School","u":"http://www.rulangpri.moe.edu.sg/"},"type":"Feature"},{"geometry":{"coordinates":[103.77401,1.31293],"type":"Point"},"properties":{"g":"","l":"S","n":"School Of Science And Technology, Singapore","p":"138572","t":"Specialised School","u":"http://www.sst.edu.sg"},"type":"Feature"},{"geometry":{"coordinates":[103.84869,1.29936],"type":"Point"},"properties":{"g":"","l":"S","n":"School Of The Arts, Singapore","p":"227968","t":"Specialised School","u":"http://www.sota.edu.sg/"},"type":"Feature"},{"geometry":{"coordinates":[103.82102,1.44505],"type":"Point"},"properties":{"g":"","l":"P","n":"Sembawang Primary School","p":"757715","t":"Government School","u":"http://www.sembawangpri.moe.edu.sg"},"type":"Feature"},{"geometry":{"coordinates":[103.81684,1.44532],"type":"Point"},"properties":{"g":"","l":"S","n":"Sembawang Secondary School","p":"757704","t":"Government School","u":"http://www.sembawangsec.moe.edu.sg"},"type":"Feature"},{"geometry":{"coordinates":[103.89977,1.3895],"type":"Point"},"properties":{"g":"","l":"P","n":"Seng Kang Primary School","p":"545166","t":"Government School","u":"http://www.sengkangpri.moe.edu.sg/"},"type":"Feature"},{"geometry":{"coordinates":[103.89837,1.3866],"type":"Point"},"properties":{"g":"","l":"S","n":"Seng Kang Secondary School","p":"545090","t":"Government School","u":"http://www.sengkangsec.moe.edu.sg"},"type":"Feature"},{"geometry":{"coordinates":[103.87522,1.39285],"type":"Point"},"properties":{"g":"","l":"P","n":"Sengkang Green Primary School","p":"797636","t":"Government School","u":"https://sengkanggreenpri.moe.edu.sg/"},"type":"Feature"},{"geometry":{"coordinates":[103.86927,1.36933],"type":"Point"},"properties":{"g":"","l":"S","n":"Serangoon Garden Secondary School","p":"555889","t":"Government School","u":"https://www.sgs.moe.edu.sg"},"type":"Feature"},{"geometry":{"coordinates":[103.90214,1.37466],"type":"Point"},"properties":{"g":"","l":"S","n":"Serangoon Secondary School","p":"534237","t":"Government School","u":"http://www.serangoonsec.moe.edu.sg"},"type":"Feature"},{"geometry":{"coordinates":[103.72152,1.34765],"type":"Point"},"properties":{"g":"","l":"P","n":"Shuqun Primary School","p":"649332","t":"Government School","u":"http://www.shuqunpri.moe.edu.sg"},"type":"Feature"},{"geometry":{"coordinates":[103.78604,1.43241],"type":"Point"},"properties":{"g":"","l":"P","n":"Si Ling Primary School","p":"739067","t":"Government School","u":"http://www.silingpri.moe.edu.sg"},"type":"Feature"},{"geometry":{"coordinates":[103.82816,1.32063],"type":"Point"},"properties":{"g":"Girls","l":"P","n":"Singapore Chinese Girls' Primary School","p":"309437","t":"Government-Aided School","u":"www.scgs.moe.edu.sg"},"type":"Feature"},{"geometry":{"coordinates":[103.82816,1.32063],"type":"Point"},"properties":{"g":"Girls","l":"S","n":"Singapore Chinese Girls' School","p":"309437","t":"Independent School","u":"http://www.scgs.moe.edu.sg"},"type":"Feature"},{"geometry":{"coordinates":[103.78944,1.42641],"type":"Point"},"properties":{"g":"","l":"S","n":"Singapore Sports School","p":"737913","t":"Specialised School","u":"http://www.sportsschool.edu.sg"},"type":"Feature"},{"geometry":{"coordinates":[103.74628,1.38167],"type":"Point"},"properties":{"g":"","l":"P","n":"South View Primary School","p":"689762","t":"Government School","u":"http://www.southviewpri.moe.edu.sg"},"type":"Feature"},{"geometry":{"coordinates":[103.8041,1.43704],"type":"Point"},"properties":{"g":"","l":"S","n":"Spectra Secondary School","p":"737758","t":"Specialised Independent School","u":"https://www.spectra.edu.sg"},"type":"Feature"},{"geometry":{"coordinates":[103.88993,1.39467],"type":"Point"},"properties":{"g":"","l":"P","n":"Springdale Primary School","p":"544799","t":"Government School","u":"http://springdalepri.moe.edu.sg/"},"type":"Feature"},{"geometry":{"coordinates":[103.93035,1.34957],"type":"Point"},"properties":{"g":"","l":"S","n":"Springfield Secondary School","p":"529593","t":"Government School","u":"http://www.springfieldsec.moe.edu.sg"},"type":"Feature"},{"geometry":{"coordinates":[103.86358,1.33307],"type":"Point"},"properties":{"g":"","l":"J","n":"St Andrew's Junior College","p":"357691","t":"Government-Aided School","u":"http://www.standrewsjc.moe.edu.sg/"},"type":"Feature"},{"geometry":{"coordinates":[103.86512,1.3314],"type":"Point"},"properties":{"g":"Boys","l":"P","n":"St Andrew's School (Junior)","p":"359337","t":"Government-Aided School","u":"http://www.saintandrewsjunior.moe.edu.sg"},"type":"Feature"},{"geometry":{"coordinates":[103.86625,1.33069],"type":"Point"},"properties":{"g":"Boys","l":"S","n":"St Andrew's School (Secondary)","p":"359342","t":"Government-Aided School","u":"http://www.standrewssec.moe.edu.sg"},"type":"Feature"},{"geometry":{"coordinates":[103.94123,1.33473],"type":"Point"},"properties":{"g":"Girls","l":"P","n":"St. Anthony's Canossian Primary School","p":"469701","t":"Government-Aided School","u":"http://www.stanthonyscanossianpri.moe.edu.sg"},"type":"Feature"},{"geometry":{"coordinates":[103.94198,1.33466],"type":"Point"},"properties":{"g":"Girls","l":"S","n":"St. Anthony's Canossian Secondary School","p":"469700","t":"Government-Aided School","u":"https://stanthonyscanossiansec.moe.edu.sg"},"type":"Feature"},{"geometry":{"coordinates":[103.74925,1.36412],"type":"Point"},"properties":{"g":"","l":"P","n":"St. Anthony's Primary School","p":"659401","t":"Government-Aided School","u":"http://www.stanthonyspri.moe.edu.sg"},"type":"Feature"},{"geometry":{"coordinates":[103.86256,1.34947],"type":"Point"},"properties":{"g":"Boys","l":"P","n":"St. Gabriel's Primary School","p":"556742","t":"Government-Aided School","u":"http://www.stgabrielspri.moe.edu.sg"},"type":"Feature"},{"geometry":{"coordinates":[103.87609,1.34649],"type":"Point"},"properties":{"g":"Boys","l":"S","n":"St. Gabriel's Secondary School","p":"556140","t":"Government-Aided School","u":"http://www.stgabrielssec.moe.edu.sg"},"type":"Feature"},{"geometry":{"coordinates":[103.93701,1.34939],"type":"Point"},"properties":{"g":"","l":"P","n":"St. Hilda's Primary School","p":"529706","t":"Government-Aided School","u":"http://www.shps.moe.edu.sg"},"type":"Feature"},{"geometry":{"coordinates":[103.93761,1.34974],"type":"Point"},"properties":{"g":"","l":"S","n":"St. Hilda's Secondary School","p":"528986","t":"Government-Aided School","u":"http://www.sthildassec.moe.edu.sg"},"type":"Feature"},{"geometry":{"coordinates":[103.8285,1.32365],"type":"Point"},"properties":{"g":"","l":"S","n":"St. Joseph's Institution","p":"308274","t":"Independent School","u":"http://www.sji.edu.sg"},"type":"Feature"},{"geometry":{"coordinates":[103.84561,1.31773],"type":"Point"},"properties":{"g":"Boys","l":"P","n":"St. Joseph's Institution Junior","p":"309331","t":"Government-Aided School","u":"https://sjijunior.moe.edu.sg"},"type":"Feature"},{"geometry":{"coordinates":[103.84596,1.3039],"type":"Point"},"properties":{"g":"Girls","l":"P","n":"St. Margaret's School (Primary)","p":"228197","t":"Government-Aided School","u":"http://www.stmargaretspri.moe.edu.sg"},"type":"Feature"},{"geometry":{"coordinates":[103.80995,1.32007],"type":"Point"},"properties":{"g":"Girls","l":"S","n":"St. Margaret's School (Secondary)","p":"259240","t":"Government-Aided School","u":"http://www.stmargaretssec.moe.edu.sg"},"type":"Feature"},{"geometry":{"coordinates":[103.91764,1.30788],"type":"Point"},"properties":{"g":"Boys","l":"S","n":"St. Patrick's School","p":"429058","t":"Government-Aided School","u":"http://www.stpatricks.moe.edu.sg"},"type":"Feature"},{"geometry":{"coordinates":[103.91726,1.31879],"type":"Point"},"properties":{"g":"Boys","l":"P","n":"St. Stephen's School","p":"455789","t":"Government-Aided School","u":"http://www.ststephens.moe.edu.sg"},"type":"Feature"},{"geometry":{"coordinates":[103.7504,1.36472],"type":"Point"},"properties":{"g":"","l":"S","n":"Swiss Cottage Secondary School","p":"659322","t":"Government School","u":"http://www.swisscottagesec.moe.edu.sg"},"type":"Feature"},{"geometry":{"coordinates":[103.93699,1.37633],"type":"Point"},"properties":{"g":"","l":"J","n":"Tampines Meridian Junior College","p":"518799","t":"Government School","u":"http://www.tmjc.moe.edu.sg"},"type":"Feature"},{"geometry":{"coordinates":[103.94873,1.36048],"type":"Point"},"properties":{"g":"","l":"P","n":"Tampines North Primary School","p":"529565","t":"Government School","u":"http://www.tampinesnorthpri.moe.edu.sg"},"type":"Feature"},{"geometry":{"coordinates":[103.944,1.34978],"type":"Point"},"properties":{"g":"","l":"P","n":"Tampines Primary School","p":"529426","t":"Government School","u":"http://www.tampinespri.moe.edu.sg"},"type":"Feature"},{"geometry":{"coordinates":[103.94426,1.34926],"type":"Point"},"properties":{"g":"","l":"S","n":"Tampines Secondary School","p":"529427","t":"Government School","u":"https://www.tampinessec.moe.edu.sg"},"type":"Feature"},{"geometry":{"coordinates":[103.89582,1.30821],"type":"Point"},"properties":{"g":"Girls","l":"S","n":"Tanjong Katong Girls' School","p":"439272","t":"Government School","u":"http://www.tkgs.moe.edu.sg"},"type":"Feature"},{"geometry":{"coordinates":[103.90016,1.30526],"type":"Point"},"properties":{"g":"","l":"P","n":"Tanjong Katong Primary School","p":"437259","t":"Government School","u":"http://www.tanjongkatongpri.moe.edu.sg/"},"type":"Feature"},{"geometry":{"coordinates":[103.89723,1.30874],"type":"Point"},"properties":{"g":"","l":"S","n":"Tanjong Katong Secondary School","p":"438796","t":"Government School","u":"http://www.tanjongkatongsec.moe.edu.sg"},"type":"Feature"},{"geometry":{"coordinates":[103.91155,1.30529],"type":"Point"},"properties":{"g":"","l":"P","n":"Tao Nan School","p":"449761","t":"Government-Aided School","u":"http://www.taonan.moe.edu.sg"},"type":"Feature"},{"geometry":{"coordinates":[103.85096,1.36559],"type":"Point"},"properties":{"g":"","l":"P","n":"Teck Ghee Primary School","p":"569299","t":"Government School","u":"http://www.teckgheepri.moe.edu.sg"},"type":"Feature"},{"geometry":{"coordinates":[103.75329,1.38365],"type":"Point"},"properties":{"g":"","l":"P","n":"Teck Whye Primary School","p":"688261","t":"Government School","u":"http://www.teckwhyepri.moe.edu.sg"},"type":"Feature"},{"geometry":{"coordinates":[103.91093,1.33105],"type":"Point"},"properties":{"g":"","l":"P","n":"Telok Kurau Primary School","p":"479239","t":"Government School","u":"http://www.telokkuraupri.moe.edu.sg"},"type":"Feature"},{"geometry":{"coordinates":[103.95619,1.35728],"type":"Point"},"properties":{"g":"","l":"S","n":"Temasek Junior College","p":"529564","t":"Government School","u":"http://www.temasekjc.moe.edu.sg"},"type":"Feature"},{"geometry":{"coordinates":[103.94559,1.31771],"type":"Point"},"properties":{"g":"","l":"P","n":"Temasek Primary School","p":"469300","t":"Government School","u":"http://www.temasekpri.moe.edu.sg"},"type":"Feature"},{"geometry":{"coordinates":[103.94756,1.31592],"type":"Point"},"properties":{"g":"","l":"S","n":"Temasek Secondary School","p":"465561","t":"Government School","u":"https://temaseksec.moe.edu.sg"},"type":"Feature"},{"geometry":{"coordinates":[103.85383,1.36003],"type":"Point"},"properties":{"g":"","l":"P","n":"Townsville Primary School","p":"569730","t":"Government School","u":"http://www.townsvillepri.moe.edu.sg/"},"type":"Feature"},{"geometry":{"coordinates":[103.74682,1.40285],"type":"Point"},"properties":{"g":"","l":"P","n":"Unity Primary School","p":"688268","t":"Government School","u":"http://www.unitypri.moe.edu.sg"},"type":"Feature"},{"geometry":{"coordinates":[103.74602,1.40002],"type":"Point"},"properties":{"g":"","l":"S","n":"Unity Secondary School","p":"689143","t":"Government School","u":"http://www.unitysec.moe.edu.sg"},"type":"Feature"},{"geometry":{"coordinates":[103.89908,1.40684],"type":"Point"},"properties":{"g":"","l":"P","n":"Valour Primary School","p":"828728","t":"Government School","u":"valourpri.moe.edu.sg"},"type":"Feature"},{"geometry":{"coordinates":[103.91998,1.3067],"type":"Point"},"properties":{"g":"","l":"J","n":"Victoria Junior College","p":"449035","t":"Government School","u":"https://www.victoriajc.moe.edu.sg/"},"type":"Feature"},{"geometry":{"coordinates":[103.92798,1.30871],"type":"Point"},"properties":{"g":"Boys","l":"S","n":"Victoria School","p":"448880","t":"Government School","u":"http://www.victoria.moe.edu.sg"},"type":"Feature"},{"geometry":{"coordinates":[103.91862,1.39883],"type":"Point"},"properties":{"g":"","l":"P","n":"Waterway Primary School","p":"828802","t":"Government School","u":"https://waterwaypri.moe.edu.sg"},"type":"Feature"},{"geometry":{"coordinates":[103.8223,1.45192],"type":"Point"},"properties":{"g":"","l":"P","n":"Wellington Primary School","p":"757702","t":"Government School","u":"http://www.wellingtonpri.moe.edu.sg"},"type":"Feature"},{"geometry":{"coordinates":[103.69929,1.34488],"type":"Point"},"properties":{"g":"","l":"P","n":"West Grove Primary School","p":"649223","t":"Government School","u":"http://www.westgrovepri.moe.edu.sg/"},"type":"Feature"},{"geometry":{"coordinates":[103.7662,1.38944],"type":"Point"},"properties":{"g":"","l":"P","n":"West Spring Primary School","p":"679946","t":"Government School","u":"http://www.westspringpri.moe.edu.sg"},"type":"Feature"},{"geometry":{"coordinates":[103.76013,1.38782],"type":"Point"},"properties":{"g":"","l":"S","n":"West Spring Secondary School","p":"677737","t":"Government School","u":"http://www.westspringsec.moe.edu.sg"},"type":"Feature"},{"geometry":{"coordinates":[103.76024,1.38368],"type":"Point"},"properties":{"g":"","l":"P","n":"West View Primary School","p":"677742","t":"Government School","u":"http://www.westviewpri.moe.edu.sg"},"type":"Feature"},{"geometry":{"coordinates":[103.70053,1.34718],"type":"Point"},"properties":{"g":"","l":"P","n":"Westwood Primary School","p":"649188","t":"Government School","u":"http://www.westwoodpri.moe.edu.sg"},"type":"Feature"},{"geometry":{"coordinates":[103.70177,1.35374],"type":"Point"},"properties":{"g":"","l":"S","n":"Westwood Secondary School","p":"648350","t":"Government School","u":"https://www.westwoodsec.moe.edu.sg"},"type":"Feature"},{"geometry":{"coordinates":[103.96092,1.36556],"type":"Point"},"properties":{"g":"","l":"P","n":"White Sands Primary School","p":"519075","t":"Government School","u":"http://www.whitesandspri.moe.edu.sg"},"type":"Feature"},{"geometry":{"coordinates":[103.84255,1.35505],"type":"Point"},"properties":{"g":"","l":"S","n":"Whitley Secondary School","p":"579747","t":"Government School","u":"http://www.whitleysec.moe.edu.sg"},"type":"Feature"},{"geometry":{"coordinates":[103.7906,1.4331],"type":"Point"},"properties":{"g":"","l":"P","n":"Woodgrove Primary School","p":"738079","t":"Government School","u":"http://www.woodgrovepri.moe.edu.sg/"},"type":"Feature"},{"geometry":{"coordinates":[103.79605,1.42832],"type":"Point"},"properties":{"g":"","l":"S","n":"Woodgrove Secondary School","p":"738990","t":"Government School","u":"https://www.woodgrovesec.moe.edu.sg"},"type":"Feature"},{"geometry":{"coordinates":[103.79157,1.43655],"type":"Point"},"properties":{"g":"","l":"P","n":"Woodlands Primary School","p":"738853","t":"Government School","u":"http://www.woodlandspri.moe.edu.sg"},"type":"Feature"},{"geometry":{"coordinates":[103.79744,1.43495],"type":"Point"},"properties":{"g":"","l":"P","n":"Woodlands Ring Primary School","p":"738240","t":"Government School","u":"http://www.woodlandsringpri.moe.edu.sg"},"type":"Feature"},{"geometry":{"coordinates":[103.77763,1.4307],"type":"Point"},"properties":{"g":"","l":"S","n":"Woodlands Ring Secondary School","p":"739062","t":"Government School","u":"http://www.woodlandsringsec.moe.edu.sg"},"type":"Feature"},{"geometry":{"coordinates":[103.77459,1.43912],"type":"Point"},"properties":{"g":"","l":"S","n":"Woodlands Secondary School","p":"739111","t":"Government School","u":"http://www.woodlandssec.moe.edu.sg"},"type":"Feature"},{"geometry":{"coordinates":[103.89047,1.35791],"type":"Point"},"properties":{"g":"","l":"P","n":"Xinghua Primary School","p":"538882","t":"Government School","u":"http://www.xinghuapri.moe.edu.sg"},"type":"Feature"},{"geometry":{"coordinates":[103.68795,1.34255],"type":"Point"},"properties":{"g":"","l":"P","n":"Xingnan Primary School","p":"649036","t":"Government School","u":"http://www.xingnanpri.moe.edu.sg"},"type":"Feature"},{"geometry":{"coordinates":[103.88308,1.3714],"type":"Point"},"properties":{"g":"","l":"P","n":"Xinmin Primary School","p":"538784","t":"Government School","u":"https://xinminpri.moe.edu.sg/"},"type":"Feature"},{"geometry":{"coordinates":[103.88305,1.37256],"type":"Point"},"properties":{"g":"","l":"S","n":"Xinmin Secondary School","p":"538789","t":"Government School","u":"https://www.xinminsec.moe.edu.sg/"},"type":"Feature"},{"geometry":{"coordinates":[103.83776,1.43347],"type":"Point"},"properties":{"g":"","l":"P","n":"Xishan Primary School","p":"768611","t":"Government School","u":"https://www.xishanpri.moe.edu.sg/"},"type":"Feature"},{"geometry":{"coordinates":[103.8686,1.34865],"type":"Point"},"properties":{"g":"","l":"P","n":"Yangzheng Primary School","p":"556108","t":"Government School","u":"http://www.yangzhengpri.moe.edu.sg/"},"type":"Feature"},{"geometry":{"coordinates":[103.75099,1.39677],"type":"Point"},"properties":{"g":"","l":"P","n":"Yew Tee Primary School","p":"689100","t":"Government School","u":"http://www.yewteepri.moe.edu.sg"},"type":"Feature"},{"geometry":{"coordinates":[103.88564,1.37793],"type":"Point"},"properties":{"g":"","l":"P","n":"Yio Chu Kang Primary School","p":"538720","t":"Government School","u":"http://www.yiochukangpri.moe.edu.sg"},"type":"Feature"},{"geometry":{"coordinates":[103.84214,1.37798],"type":"Point"},"properties":{"g":"","l":"S","n":"Yio Chu Kang Secondary School","p":"569868","t":"Government School","u":"http://www.yiochukangsec.moe.edu.sg"},"type":"Feature"},{"geometry":{"coordinates":[103.83003,1.42427],"type":"Point"},"properties":{"g":"","l":"J","n":"Yishun Innova Junior College","p":"768675","t":"Government School","u":"https://yijc.moe.edu.sg/"},"type":"Feature"},{"geometry":{"coordinates":[103.83409,1.43339],"type":"Point"},"properties":{"g":"","l":"P","n":"Yishun Primary School","p":"768679","t":"Government School","u":"http://www.yishunpri.moe.edu.sg"},"type":"Feature"},{"geometry":{"coordinates":[103.82876,1.42813],"type":"Point"},"properties":{"g":"","l":"S","n":"Yishun Secondary School","p":"768516","t":"Government School","u":"http://www.yishunsec.moe.edu.sg"},"type":"Feature"},{"geometry":{"coordinates":[103.83809,1.43232],"type":"Point"},"properties":{"g":"","l":"S","n":"Yishun Town Secondary School","p":"768610","t":"Government School","u":"http://www.yishuntownsec.moe.edu.sg"},"type":"Feature"},{"geometry":{"coordinates":[103.93214,1.33389],"type":"Point"},"properties":{"g":"","l":"P","n":"Yu Neng Primary School","p":"469623","t":"Government School","u":"http://www.ynps.moe.edu.sg/"},"type":"Feature"},{"geometry":{"coordinates":[103.7209,1.34201],"type":"Point"},"properties":{"g":"","l":"S","n":"Yuan Ching Secondary School","p":"618654","t":"Government School","u":"https://yuanchingsec.moe.edu.sg/"},"type":"Feature"},{"geometry":{"coordinates":[103.74111,1.3428],"type":"Point"},"properties":{"g":"","l":"P","n":"Yuhua Primary School","p":"609558","t":"Government School","u":"http://www.yuhuapri.moe.edu.sg"},"type":"Feature"},{"geometry":{"coordinates":[103.72269,1.34719],"type":"Point"},"properties":{"g":"","l":"S","n":"Yuhua Secondary School","p":"649406","t":"Government School","u":"http://www.yuhuasec.moe.edu.sg"},"type":"Feature"},{"geometry":{"coordinates":[103.95046,1.35129],"type":"Point"},"properties":{"g":"","l":"P","n":"Yumin Primary School","p":"529393","t":"Government School","u":"http://www.yuminpri.moe.edu.sg"},"type":"Feature"},{"geometry":{"coordinates":[103.89628,1.40694],"type":"Point"},"properties":{"g":"","l":"S","n":"Yusof Ishak Secondary School","p":"828676","t":"Government School","u":"http://www.yusofishaksec.moe.edu.sg"},"type":"Feature"},{"geometry":{"coordinates":[103.89019,1.35714],"type":"Point"},"properties":{"g":"","l":"S","n":"Yuying Secondary School","p":"538884","t":"Government-Aided School","u":"http://www.yuyingsec.moe.edu.sg"},"type":"Feature"},{"geometry":{"coordinates":[103.82595,1.28421],"type":"Point"},"properties":{"g":"","l":"P","n":"Zhangde Primary School","p":"169485","t":"Government School","u":"http://www.zhangdepri.moe.edu.sg/"},"type":"Feature"},{"geometry":{"coordinates":[103.76931,1.37955],"type":"Point"},"properties":{"g":"","l":"P","n":"Zhenghua Primary School","p":"679002","t":"Government School","u":"http://www.zhenghuapri.moe.edu.sg"},"type":"Feature"},{"geometry":{"coordinates":[103.76551,1.38837],"type":"Point"},"properties":{"g":"","l":"S","n":"Zhenghua Secondary School","p":"679962","t":"Government School","u":"http://www.zhenghuasec.moe.edu.sg"},"type":"Feature"},{"geometry":{"coordinates":[103.86976,1.3602],"type":"Point"},"properties":{"g":"","l":"P","n":"Zhonghua Primary School","p":"556095","t":"Government School","u":"http://www.zhonghuapri.moe.edu.sg"},"type":"Feature"},{"geometry":{"coordinates":[103.86943,1.34841],"type":"Point"},"properties":{"g":"","l":"S","n":"Zhonghua Secondary School","p":"556123","t":"Government School","u":"https://www.zhonghuasec.moe.edu.sg"},"type":"Feature"}],"type":"FeatureCollection"}