{"type":"FeatureCollection","features":[{"type":"Feature","geometry":{"type":"Point","coordinates":[103.80096,1.44064]},"properties":{"name":"Admiralty","codes":"NS10","lines":"NSL","colour":"#d42e12","interchange":0,"building":0}},{"type":"Feature","geometry":{"type":"Point","coordinates":[103.88291,1.31645]},"properties":{"name":"Aljunied","codes":"EW9","lines":"EWL","colour":"#009645","interchange":0,"building":0}},{"type":"Feature","geometry":{"type":"Point","coordinates":[103.84952,1.37008]},"properties":{"name":"Ang Mo Kio","codes":"NS16","lines":"NSL","colour":"#d42e12","interchange":0,"building":0}},{"type":"Feature","geometry":{"type":"Point","coordinates":[103.70236,1.34581]},"properties":{"name":"Bahar Junction","codes":"JS7","lines":"JRL","colour":"#0099aa","interchange":0,"building":1}},{"type":"Feature","geometry":{"type":"Point","coordinates":[103.90542,1.38801]},"properties":{"name":"Bakau","codes":"SE3","lines":"SKLRT","colour":"#748477","interchange":0,"building":0}},{"type":"Feature","geometry":{"type":"Point","coordinates":[103.77265,1.38004]},"properties":{"name":"Bangkit","codes":"BP9","lines":"BPLRT","colour":"#748477","interchange":0,"building":0}},{"type":"Feature","geometry":{"type":"Point","coordinates":[103.8797,1.34291]},"properties":{"name":"Bartley","codes":"CC12","lines":"CCL","colour":"#fa9e0d","interchange":0,"building":0}},{"type":"Feature","geometry":{"type":"Point","coordinates":[103.85968,1.2826]},"properties":{"name":"Bayfront","codes":"CC34, DT16","lines":"CCL, DTL","colour":"#fa9e0d","interchange":1,"building":0}},{"type":"Feature","geometry":{"type":"Point","coordinates":[103.94231,1.31283]},"properties":{"name":"Bayshore","codes":"TE29","lines":"TEL","colour":"#9d5b25","interchange":0,"building":0}},{"type":"Feature","geometry":{"type":"Point","coordinates":[103.77588,1.34109]},"properties":{"name":"Beauty World","codes":"DT5","lines":"DTL","colour":"#0354a6","interchange":0,"building":0}},{"type":"Feature","geometry":{"type":"Point","coordinates":[103.93022,1.32397]},"properties":{"name":"Bedok","codes":"EW5","lines":"EWL","colour":"#009645","interchange":0,"building":0}},{"type":"Feature","geometry":{"type":"Point","coordinates":[103.91831,1.3346]},"properties":{"name":"Bedok North","codes":"DT29","lines":"DTL","colour":"#0354a6","interchange":0,"building":0}},{"type":"Feature","geometry":{"type":"Point","coordinates":[103.93247,1.3366]},"properties":{"name":"Bedok Reservoir","codes":"DT30","lines":"DTL","colour":"#0354a6","interchange":0,"building":0}},{"type":"Feature","geometry":{"type":"Point","coordinates":[103.94905,1.31644]},"properties":{"name":"Bedok South","codes":"TE30","lines":"TEL","colour":"#9d5b25","interchange":0,"building":0}},{"type":"Feature","geometry":{"type":"Point","coordinates":[103.85028,1.29852]},"properties":{"name":"Bencoolen","codes":"DT21","lines":"DTL","colour":"#0354a6","interchange":0,"building":0}},{"type":"Feature","geometry":{"type":"Point","coordinates":[103.86272,1.31364]},"properties":{"name":"Bendemeer","codes":"DT23","lines":"DTL","colour":"#0354a6","interchange":0,"building":0}},{"type":"Feature","geometry":{"type":"Point","coordinates":[103.84904,1.35099]},"properties":{"name":"Bishan","codes":"NS17, CC15","lines":"NSL, CCL","colour":"#d42e12","interchange":1,"building":0}},{"type":"Feature","geometry":{"type":"Point","coordinates":[103.86155,1.31913]},"properties":{"name":"Boon Keng","codes":"NE9","lines":"NEL","colour":"#9016b2","interchange":0,"building":0}},{"type":"Feature","geometry":{"type":"Point","coordinates":[103.70581,1.33855]},"properties":{"name":"Boon Lay","codes":"EW27, JS8","lines":"EWL, JRL","colour":"#009645","interchange":1,"building":0}},{"type":"Feature","geometry":{"type":"Point","coordinates":[103.81565,1.3221]},"properties":{"name":"Botanic Gardens","codes":"CC19, DT9","lines":"CCL, DTL","colour":"#fa9e0d","interchange":1,"building":0}},{"type":"Feature","geometry":{"type":"Point","coordinates":[103.84692,1.3403]},"properties":{"name":"Braddell","codes":"NS18","lines":"NSL","colour":"#d42e12","interchange":0,"building":0}},{"type":"Feature","geometry":{"type":"Point","coordinates":[103.85075,1.29688]},"properties":{"name":"Bras Basah","codes":"CC2","lines":"CCL","colour":"#fa9e0d","interchange":0,"building":0}},{"type":"Feature","geometry":{"type":"Point","coordinates":[103.83482,1.36306]},"properties":{"name":"Bright Hill","codes":"TE7, CR6","lines":"TEL, CRL","colour":"#9d5b25","interchange":1,"building":0}},{"type":"Feature","geometry":{"type":"Point","coordinates":[103.89313,1.38297]},"properties":{"name":"Buangkok","codes":"NE15","lines":"NEL","colour":"#9016b2","interchange":0,"building":0}},{"type":"Feature","geometry":{"type":"Point","coordinates":[103.85628,1.29995]},"properties":{"name":"Bugis","codes":"EW12, DT14","lines":"EWL, DTL","colour":"#009645","interchange":1,"building":0}},{"type":"Feature","geometry":{"type":"Point","coordinates":[103.74959,1.34906]},"properties":{"name":"Bukit Batok","codes":"NS2","lines":"NSL","colour":"#d42e12","interchange":0,"building":0}},{"type":"Feature","geometry":{"type":"Point","coordinates":[103.73973,1.34553]},"properties":{"name":"Bukit Batok West","codes":"JE3","lines":"JRL","colour":"#0099aa","interchange":0,"building":1}},{"type":"Feature","geometry":{"type":"Point","coordinates":[103.83068,1.33375]},"properties":{"name":"Bukit Brown","codes":"CC18","lines":"CCL","colour":"#fa9e0d","interchange":0,"building":0}},{"type":"Feature","geometry":{"type":"Point","coordinates":[103.75182,1.35889]},"properties":{"name":"Bukit Gombak","codes":"NS3","lines":"NSL","colour":"#d42e12","interchange":0,"building":0}},{"type":"Feature","geometry":{"type":"Point","coordinates":[103.76309,1.37792]},"properties":{"name":"Bukit Panjang","codes":"BP6, DT1","lines":"BPLRT, DTL","colour":"#748477","interchange":1,"building":0}},{"type":"Feature","geometry":{"type":"Point","coordinates":[103.79035,1.30663]},"properties":{"name":"Buona Vista","codes":"CC22, EW21","lines":"CCL, EWL","colour":"#fa9e0d","interchange":1,"building":0}},{"type":"Feature","geometry":{"type":"Point","coordinates":[103.83981,1.33737]},"properties":{"name":"Caldecott","codes":"CC17, TE9","lines":"CCL, TEL","colour":"#fa9e0d","interchange":1,"building":0}},{"type":"Feature","geometry":{"type":"Point","coordinates":[103.82963,1.44321]},"properties":{"name":"Canberra","codes":"NS12","lines":"NSL","colour":"#d42e12","interchange":0,"building":0}},{"type":"Feature","geometry":{"type":"Point","coordinates":[103.83706,1.27311]},"properties":{"name":"Cantonment","codes":"CC31","lines":"CCL","colour":"#fa9e0d","interchange":0,"building":0}},{"type":"Feature","geometry":{"type":"Point","coordinates":[103.76473,1.36936]},"properties":{"name":"Cashew","codes":"DT2","lines":"DTL","colour":"#0354a6","interchange":0,"building":0}},{"type":"Feature","geometry":{"type":"Point","coordinates":[103.98853,1.35757]},"properties":{"name":"Changi Airport","codes":"CG2","lines":"EWL","colour":"#009645","interchange":0,"building":0}},{"type":"Feature","geometry":{"type":"Point","coordinates":[103.89379,1.39629]},"properties":{"name":"Cheng Lim","codes":"SW1","lines":"SKLRT","colour":"#748477","interchange":0,"building":0}},{"type":"Feature","geometry":{"type":"Point","coordinates":[103.84414,1.28469]},"properties":{"name":"Chinatown","codes":"NE4, DT19","lines":"NEL, DTL","colour":"#9016b2","interchange":1,"building":0}},{"type":"Feature","geometry":{"type":"Point","coordinates":[103.73255,1.34241]},"properties":{"name":"Chinese Garden","codes":"EW25","lines":"EWL","colour":"#009645","interchange":0,"building":0}},{"type":"Feature","geometry":{"type":"Point","coordinates":[103.74433,1.38532]},"properties":{"name":"Choa Chu Kang","codes":"NS4, BP1","lines":"NSL, BPLRT","colour":"#d42e12","interchange":1,"building":0}},{"type":"Feature","geometry":{"type":"Point","coordinates":[103.74,1.37922]},"properties":{"name":"Choa Chu Kang West","codes":"JS2","lines":"JRL","colour":"#0099aa","interchange":0,"building":1}},{"type":"Feature","geometry":{"type":"Point","coordinates":[103.85262,1.29305]},"properties":{"name":"City Hall","codes":"NS25, EW13","lines":"NSL, EWL","colour":"#d42e12","interchange":1,"building":0}},{"type":"Feature","geometry":{"type":"Point","coordinates":[103.8466,1.28826]},"properties":{"name":"Clarke Quay","codes":"NE5","lines":"NEL","colour":"#9016b2","interchange":0,"building":0}},{"type":"Feature","geometry":{"type":"Point","coordinates":[103.7659,1.31613]},"properties":{"name":"Clementi","codes":"EW23, CR17","lines":"EWL, CRL","colour":"#009645","interchange":1,"building":0}},{"type":"Feature","geometry":{"type":"Point","coordinates":[103.79831,1.30244]},"properties":{"name":"Commonwealth","codes":"EW20","lines":"EWL","colour":"#009645","interchange":0,"building":0}},{"type":"Feature","geometry":{"type":"Point","coordinates":[103.90043,1.39452]},"properties":{"name":"Compassvale","codes":"SE1","lines":"SKLRT","colour":"#748477","interchange":0,"building":0}},{"type":"Feature","geometry":{"type":"Point","coordinates":[103.91267,1.39385]},"properties":{"name":"Coral Edge","codes":"PE3","lines":"PGLRT","colour":"#748477","interchange":0,"building":0}},{"type":"Feature","geometry":{"type":"Point","coordinates":[103.71381,1.35298]},"properties":{"name":"Corporation","codes":"JS5","lines":"JRL","colour":"#0099aa","interchange":0,"building":1}},{"type":"Feature","geometry":{"type":"Point","coordinates":[103.9058,1.39946]},"properties":{"name":"Cove","codes":"PE1","lines":"PGLRT","colour":"#748477","interchange":0,"building":0}},{"type":"Feature","geometry":{"type":"Point","coordinates":[103.88862,1.30843]},"properties":{"name":"Dakota","codes":"CC8","lines":"CCL","colour":"#fa9e0d","interchange":0,"building":0}},{"type":"Feature","geometry":{"type":"Point","coordinates":[103.90862,1.40524]},"properties":{"name":"Damai","codes":"PE7","lines":"PGLRT","colour":"#748477","interchange":0,"building":0}},{"type":"Feature","geometry":{"type":"Point","coordinates":[103.84555,1.2996]},"properties":{"name":"Dhoby Ghaut","codes":"NS24, NE6, CC1","lines":"NSL, NEL, CCL","colour":"#d42e12","interchange":1,"building":0}},{"type":"Feature","geometry":{"type":"Point","coordinates":[103.77861,1.31142]},"properties":{"name":"Dover","codes":"EW22","lines":"EWL","colour":"#009645","interchange":0,"building":0}},{"type":"Feature","geometry":{"type":"Point","coordinates":[103.85279,1.27951]},"properties":{"name":"Downtown","codes":"DT17","lines":"DTL","colour":"#0354a6","interchange":0,"building":0}},{"type":"Feature","geometry":{"type":"Point","coordinates":[103.70854,1.3328]},"properties":{"name":"Enterprise","codes":"JS9","lines":"JRL","colour":"#0099aa","interchange":0,"building":1}},{"type":"Feature","geometry":{"type":"Point","coordinates":[103.85553,1.29344]},"properties":{"name":"Esplanade","codes":"CC3","lines":"CCL","colour":"#fa9e0d","interchange":0,"building":0}},{"type":"Feature","geometry":{"type":"Point","coordinates":[103.90289,1.3198]},"properties":{"name":"Eunos","codes":"EW7","lines":"EWL","colour":"#009645","interchange":0,"building":0}},{"type":"Feature","geometry":{"type":"Point","coordinates":[103.96266,1.33508]},"properties":{"name":"Expo","codes":"DT35, CG1","lines":"DTL, EWL","colour":"#0354a6","interchange":1,"building":0}},{"type":"Feature","geometry":{"type":"Point","coordinates":[103.77088,1.38459]},"properties":{"name":"Fajar","codes":"BP10","lines":"BPLRT","colour":"#748477","interchange":0,"building":0}},{"type":"Feature","geometry":{"type":"Point","coordinates":[103.88922,1.39719]},"properties":{"name":"Farmway","codes":"SW2","lines":"SKLRT","colour":"#748477","interchange":0,"building":0}},{"type":"Feature","geometry":{"type":"Point","coordinates":[103.85434,1.31249]},"properties":{"name":"Farrer Park","codes":"NE8","lines":"NEL","colour":"#9016b2","interchange":0,"building":0}},{"type":"Feature","geometry":{"type":"Point","coordinates":[103.80749,1.31746]},"properties":{"name":"Farrer Road","codes":"CC20","lines":"CCL","colour":"#fa9e0d","interchange":0,"building":0}},{"type":"Feature","geometry":{"type":"Point","coordinates":[103.87628,1.3919]},"properties":{"name":"Fernvale","codes":"SW5","lines":"SKLRT","colour":"#748477","interchange":0,"building":0}},{"type":"Feature","geometry":{"type":"Point","coordinates":[103.84435,1.29249]},"properties":{"name":"Fort Canning","codes":"DT20","lines":"DTL","colour":"#0354a6","interchange":0,"building":0}},{"type":"Feature","geometry":{"type":"Point","coordinates":[103.86897,1.29092]},"properties":{"name":"Founders' Memorial","codes":"TE22A","lines":"TEL","colour":"#9d5b25","interchange":0,"building":0}},{"type":"Feature","geometry":{"type":"Point","coordinates":[103.86795,1.27923]},"properties":{"name":"Gardens by the Bay","codes":"TE22","lines":"TEL","colour":"#9d5b25","interchange":0,"building":0}},{"type":"Feature","geometry":{"type":"Point","coordinates":[103.87196,1.32151]},"properties":{"name":"Geylang Bahru","codes":"DT24","lines":"DTL","colour":"#0354a6","interchange":0,"building":0}},{"type":"Feature","geometry":{"type":"Point","coordinates":[103.83334,1.29462]},"properties":{"name":"Great World","codes":"TE15","lines":"TEL","colour":"#9d5b25","interchange":0,"building":0}},{"type":"Feature","geometry":{"type":"Point","coordinates":[103.66066,1.31964]},"properties":{"name":"Gul Circle","codes":"EW30, CR23","lines":"EWL, CRL","colour":"#009645","interchange":1,"building":0}},{"type":"Feature","geometry":{"type":"Point","coordinates":[103.82155,1.26536]},"properties":{"name":"HarbourFront","codes":"CC29, NE1","lines":"CCL, NEL","colour":"#fa9e0d","interchange":1,"building":0}},{"type":"Feature","geometry":{"type":"Point","coordinates":[103.83367,1.28855]},"properties":{"name":"Havelock","codes":"TE16","lines":"TEL","colour":"#9d5b25","interchange":0,"building":0}},{"type":"Feature","geometry":{"type":"Point","coordinates":[103.78185,1.28268]},"properties":{"name":"Haw Par Villa","codes":"CC25","lines":"CCL","colour":"#fa9e0d","interchange":0,"building":0}},{"type":"Feature","geometry":{"type":"Point","coordinates":[103.76746,1.36235]},"properties":{"name":"Hillview","codes":"DT3","lines":"DTL","colour":"#0354a6","interchange":0,"building":0}},{"type":"Feature","geometry":{"type":"Point","coordinates":[103.79641,1.31173]},"properties":{"name":"Holland Village","codes":"CC21","lines":"CCL","colour":"#fa9e0d","interchange":0,"building":0}},{"type":"Feature","geometry":{"type":"Point","coordinates":[103.72611,1.35811]},"properties":{"name":"Hong Kah","codes":"JS4","lines":"JRL","colour":"#0099aa","interchange":0,"building":1}},{"type":"Feature","geometry":{"type":"Point","coordinates":[103.76912,1.35447]},"properties":{"name":"Hume","codes":"DT4","lines":"DTL","colour":"#0354a6","interchange":0,"building":0}},{"type":"Feature","geometry":{"type":"Point","coordinates":[103.85556,1.30537]},"properties":{"name":"Jalan Besar","codes":"DT22","lines":"DTL","colour":"#0354a6","interchange":0,"building":0}},{"type":"Feature","geometry":{"type":"Point","coordinates":[103.76451,1.38669]},"properties":{"name":"Jelapang","codes":"BP12","lines":"BPLRT","colour":"#748477","interchange":0,"building":0}},{"type":"Feature","geometry":{"type":"Point","coordinates":[103.67822,1.32774]},"properties":{"name":"Joo Koon","codes":"EW29","lines":"EWL","colour":"#009645","interchange":0,"building":0}},{"type":"Feature","geometry":{"type":"Point","coordinates":[103.74229,1.33311]},"properties":{"name":"Jurong East","codes":"NS1, EW24, JE5","lines":"NSL, EWL, JRL","colour":"#d42e12","interchange":1,"building":0}},{"type":"Feature","geometry":{"type":"Point","coordinates":[103.71021,1.31858]},"properties":{"name":"Jurong Hill","codes":"JS11","lines":"JRL","colour":"#0099aa","interchange":0,"building":1}},{"type":"Feature","geometry":{"type":"Point","coordinates":[103.73963,1.32708]},"properties":{"name":"Jurong Lake District","codes":"CR19","lines":"CRL","colour":"#97c616","interchange":0,"building":1}},{"type":"Feature","geometry":{"type":"Point","coordinates":[103.71044,1.31302]},"properties":{"name":"Jurong Pier","codes":"JS12","lines":"JRL","colour":"#0099aa","interchange":0,"building":1}},{"type":"Feature","geometry":{"type":"Point","coordinates":[103.74523,1.32641]},"properties":{"name":"Jurong Town Hall","codes":"JE6","lines":"JRL","colour":"#0099aa","interchange":0,"building":1}},{"type":"Feature","geometry":{"type":"Point","coordinates":[103.70829,1.34919]},"properties":{"name":"Jurong West","codes":"JS6","lines":"JRL","colour":"#0099aa","interchange":0,"building":1}},{"type":"Feature","geometry":{"type":"Point","coordinates":[103.91651,1.39955]},"properties":{"name":"Kadaloor","codes":"PE5","lines":"PGLRT","colour":"#748477","interchange":0,"building":0}},{"type":"Feature","geometry":{"type":"Point","coordinates":[103.90837,1.33507]},"properties":{"name":"Kaki Bukit","codes":"DT28","lines":"DTL","colour":"#0354a6","interchange":0,"building":0}},{"type":"Feature","geometry":{"type":"Point","coordinates":[103.87134,1.31147]},"properties":{"name":"Kallang","codes":"EW10","lines":"EWL","colour":"#009645","interchange":0,"building":0}},{"type":"Feature","geometry":{"type":"Point","coordinates":[103.90221,1.38393]},"properties":{"name":"Kangkar","codes":"SE4","lines":"SKLRT","colour":"#748477","interchange":0,"building":0}},{"type":"Feature","geometry":{"type":"Point","coordinates":[103.88622,1.29796]},"properties":{"name":"Katong Park","codes":"TE24","lines":"TEL","colour":"#9d5b25","interchange":0,"building":0}},{"type":"Feature","geometry":{"type":"Point","coordinates":[103.74902,1.3786]},"properties":{"name":"Keat Hong","codes":"BP3","lines":"BPLRT","colour":"#748477","interchange":0,"building":0}},{"type":"Feature","geometry":{"type":"Point","coordinates":[103.91293,1.32103]},"properties":{"name":"Kembangan","codes":"EW6","lines":"EWL","colour":"#009645","interchange":0,"building":0}},{"type":"Feature","geometry":{"type":"Point","coordinates":[103.78468,1.29326]},"properties":{"name":"Kent Ridge","codes":"CC24","lines":"CCL","colour":"#fa9e0d","interchange":0,"building":0}},{"type":"Feature","geometry":{"type":"Point","coordinates":[103.83071,1.27046]},"properties":{"name":"Keppel","codes":"CC30","lines":"CCL","colour":"#fa9e0d","interchange":0,"building":0}},{"type":"Feature","geometry":{"type":"Point","coordinates":[103.83302,1.41736]},"properties":{"name":"Khatib","codes":"NS14","lines":"NSL","colour":"#d42e12","interchange":0,"building":0}},{"type":"Feature","geometry":{"type":"Point","coordinates":[103.78383,1.33566]},"properties":{"name":"King Albert Park","codes":"DT6, CR15","lines":"DTL, CRL","colour":"#0354a6","interchange":1,"building":0}},{"type":"Feature","geometry":{"type":"Point","coordinates":[103.885,1.36021]},"properties":{"name":"Kovan","codes":"NE13","lines":"NEL","colour":"#9016b2","interchange":0,"building":0}},{"type":"Feature","geometry":{"type":"Point","coordinates":[103.76199,1.42522]},"properties":{"name":"Kranji","codes":"NS7","lines":"NSL","colour":"#d42e12","interchange":0,"building":0}},{"type":"Feature","geometry":{"type":"Point","coordinates":[103.88125,1.3982]},"properties":{"name":"Kupang","codes":"SW3","lines":"SKLRT","colour":"#748477","interchange":0,"building":0}},{"type":"Feature","geometry":{"type":"Point","coordinates":[103.80299,1.27225]},"properties":{"name":"Labrador Park","codes":"CC27","lines":"CCL","colour":"#fa9e0d","interchange":0,"building":0}},{"type":"Feature","geometry":{"type":"Point","coordinates":[103.72069,1.34425]},"properties":{"name":"Lakeside","codes":"EW26","lines":"EWL","colour":"#009645","interchange":0,"building":0}},{"type":"Feature","geometry":{"type":"Point","coordinates":[103.86277,1.30736]},"properties":{"name":"Lavender","codes":"EW11","lines":"EWL","colour":"#009645","interchange":0,"building":0}},{"type":"Feature","geometry":{"type":"Point","coordinates":[103.88003,1.39208]},"properties":{"name":"Layar","codes":"SW6","lines":"SKLRT","colour":"#748477","interchange":0,"building":0}},{"type":"Feature","geometry":{"type":"Point","coordinates":[103.83637,1.38475]},"properties":{"name":"Lentor","codes":"TE5","lines":"TEL","colour":"#9d5b25","interchange":0,"building":0}},{"type":"Feature","geometry":{"type":"Point","coordinates":[103.84917,1.30688]},"properties":{"name":"Little India","codes":"NE7, DT12","lines":"NEL, DTL","colour":"#9016b2","interchange":1,"building":0}},{"type":"Feature","geometry":{"type":"Point","coordinates":[103.86395,1.35154]},"properties":{"name":"Lorong Chuan","codes":"CC14","lines":"CCL","colour":"#fa9e0d","interchange":0,"building":0}},{"type":"Feature","geometry":{"type":"Point","coordinates":[103.88956,1.32623]},"properties":{"name":"MacPherson","codes":"CC10, DT26","lines":"CCL, DTL","colour":"#fa9e0d","interchange":1,"building":0}},{"type":"Feature","geometry":{"type":"Point","coordinates":[103.77668,1.32812]},"properties":{"name":"Maju","codes":"CR16","lines":"CRL","colour":"#97c616","interchange":0,"building":1}},{"type":"Feature","geometry":{"type":"Point","coordinates":[103.85531,1.27547]},"properties":{"name":"Marina Bay","codes":"NS27, TE20, CC33","lines":"NSL, TEL, CCL","colour":"#d42e12","interchange":1,"building":0}},{"type":"Feature","geometry":{"type":"Point","coordinates":[103.86289,1.27431]},"properties":{"name":"Marina South","codes":"TE21","lines":"TEL","colour":"#9d5b25","interchange":0,"building":0}},{"type":"Feature","geometry":{"type":"Point","coordinates":[103.86282,1.27145]},"properties":{"name":"Marina South Pier","codes":"NS28","lines":"NSL","colour":"#d42e12","interchange":0,"building":0}},{"type":"Feature","geometry":{"type":"Point","coordinates":[103.90707,1.30371]},"properties":{"name":"Marine Parade","codes":"TE26","lines":"TEL","colour":"#9d5b25","interchange":0,"building":0}},{"type":"Feature","geometry":{"type":"Point","coordinates":[103.91506,1.3066]},"properties":{"name":"Marine Terrace","codes":"TE27","lines":"TEL","colour":"#9d5b25","interchange":0,"building":0}},{"type":"Feature","geometry":{"type":"Point","coordinates":[103.77412,1.43257]},"properties":{"name":"Marsiling","codes":"NS8","lines":"NSL","colour":"#d42e12","interchange":0,"building":0}},{"type":"Feature","geometry":{"type":"Point","coordinates":[103.83954,1.34863]},"properties":{"name":"Marymount","codes":"CC16","lines":"CCL","colour":"#fa9e0d","interchange":0,"building":0}},{"type":"Feature","geometry":{"type":"Point","coordinates":[103.88334,1.32685]},"properties":{"name":"Mattar","codes":"DT25","lines":"DTL","colour":"#0354a6","interchange":0,"building":0}},{"type":"Feature","geometry":{"type":"Point","coordinates":[103.84388,1.28062]},"properties":{"name":"Maxwell","codes":"TE18","lines":"TEL","colour":"#9d5b25","interchange":0,"building":0}},{"type":"Feature","geometry":{"type":"Point","coordinates":[103.83689,1.37223]},"properties":{"name":"Mayflower","codes":"TE6","lines":"TEL","colour":"#9d5b25","interchange":0,"building":0}},{"type":"Feature","geometry":{"type":"Point","coordinates":[103.90888,1.39694]},"properties":{"name":"Meridian","codes":"PE2","lines":"PGLRT","colour":"#748477","interchange":0,"building":0}},{"type":"Feature","geometry":{"type":"Point","coordinates":[103.83518,1.32857]},"properties":{"name":"Mount Pleasant","codes":"TE10","lines":"TEL","colour":"#9d5b25","interchange":0,"building":0}},{"type":"Feature","geometry":{"type":"Point","coordinates":[103.88244,1.30639]},"properties":{"name":"Mountbatten","codes":"CC7","lines":"CCL","colour":"#fa9e0d","interchange":0,"building":0}},{"type":"Feature","geometry":{"type":"Point","coordinates":[103.68113,1.34854]},"properties":{"name":"Nanyang Crescent","codes":"JW4","lines":"JRL","colour":"#0099aa","interchange":0,"building":1}},{"type":"Feature","geometry":{"type":"Point","coordinates":[103.68668,1.35378]},"properties":{"name":"Nanyang Gateway","codes":"JW3","lines":"JRL","colour":"#0099aa","interchange":0,"building":1}},{"type":"Feature","geometry":{"type":"Point","coordinates":[103.81915,1.30672]},"properties":{"name":"Napier","codes":"TE12","lines":"TEL","colour":"#9d5b25","interchange":0,"building":0}},{"type":"Feature","geometry":{"type":"Point","coordinates":[103.83784,1.31306]},"properties":{"name":"Newton","codes":"NS21, DT11","lines":"NSL, DTL","colour":"#d42e12","interchange":1,"building":0}},{"type":"Feature","geometry":{"type":"Point","coordinates":[103.90035,1.41186]},"properties":{"name":"Nibong","codes":"PW5","lines":"PGLRT","colour":"#748477","interchange":0,"building":0}},{"type":"Feature","geometry":{"type":"Point","coordinates":[103.86387,1.29984]},"properties":{"name":"Nicoll Highway","codes":"CC5","lines":"CCL","colour":"#fa9e0d","interchange":0,"building":0}},{"type":"Feature","geometry":{"type":"Point","coordinates":[103.84387,1.32052]},"properties":{"name":"Novena","codes":"NS20","lines":"NSL","colour":"#d42e12","interchange":0,"building":0}},{"type":"Feature","geometry":{"type":"Point","coordinates":[103.91273,1.40229]},"properties":{"name":"Oasis","codes":"PE6","lines":"PGLRT","colour":"#748477","interchange":0,"building":0}},{"type":"Feature","geometry":{"type":"Point","coordinates":[103.83142,1.30313]},"properties":{"name":"Orchard","codes":"NS22, TE14","lines":"NSL, TEL","colour":"#d42e12","interchange":1,"building":0}},{"type":"Feature","geometry":{"type":"Point","coordinates":[103.82387,1.30319]},"properties":{"name":"Orchard Boulevard","codes":"TE13","lines":"TEL","colour":"#9d5b25","interchange":0,"building":0}},{"type":"Feature","geometry":{"type":"Point","coordinates":[103.7448,1.32044]},"properties":{"name":"Pandan Reservoir","codes":"JE7","lines":"JRL","colour":"#0099aa","interchange":0,"building":1}},{"type":"Feature","geometry":{"type":"Point","coordinates":[103.79135,1.2762]},"properties":{"name":"Pasir Panjang","codes":"CC26","lines":"CCL","colour":"#fa9e0d","interchange":0,"building":0}},{"type":"Feature","geometry":{"type":"Point","coordinates":[103.94947,1.37129]},"properties":{"name":"Pasir Ris","codes":"EW1, CR5","lines":"EWL, CRL","colour":"#009645","interchange":1,"building":0}},{"type":"Feature","geometry":{"type":"Point","coordinates":[103.89266,1.3175]},"properties":{"name":"Paya Lebar","codes":"CC9, EW8","lines":"CCL, EWL","colour":"#fa9e0d","interchange":1,"building":0}},{"type":"Feature","geometry":{"type":"Point","coordinates":[103.77126,1.37618]},"properties":{"name":"Pending","codes":"BP8","lines":"BPLRT","colour":"#748477","interchange":0,"building":0}},{"type":"Feature","geometry":{"type":"Point","coordinates":[103.67859,1.34287]},"properties":{"name":"Peng Kang Hill","codes":"JW5","lines":"JRL","colour":"#0099aa","interchange":0,"building":1}},{"type":"Feature","geometry":{"type":"Point","coordinates":[103.76663,1.37777]},"properties":{"name":"Petir","codes":"BP7","lines":"BPLRT","colour":"#748477","interchange":0,"building":0}},{"type":"Feature","geometry":{"type":"Point","coordinates":[103.75801,1.37862]},"properties":{"name":"Phoenix","codes":"BP5","lines":"BPLRT","colour":"#748477","interchange":0,"building":0}},{"type":"Feature","geometry":{"type":"Point","coordinates":[103.69741,1.33759]},"properties":{"name":"Pioneer","codes":"EW28","lines":"EWL","colour":"#009645","interchange":0,"building":0}},{"type":"Feature","geometry":{"type":"Point","coordinates":[103.86904,1.33143]},"properties":{"name":"Potong Pasir","codes":"NE10","lines":"NEL","colour":"#9016b2","interchange":0,"building":0}},{"type":"Feature","geometry":{"type":"Point","coordinates":[103.8471,1.27329]},"properties":{"name":"Prince Edward Road","codes":"CC32","lines":"CCL","colour":"#fa9e0d","interchange":0,"building":0}},{"type":"Feature","geometry":{"type":"Point","coordinates":[103.86056,1.29311]},"properties":{"name":"Promenade","codes":"CC4, DT15","lines":"CCL, DTL","colour":"#fa9e0d","interchange":1,"building":0}},{"type":"Feature","geometry":{"type":"Point","coordinates":[103.90264,1.40538]},"properties":{"name":"Punggol","codes":"NE17, CP4","lines":"NEL, CRL","colour":"#9016b2","interchange":1,"building":0}},{"type":"Feature","geometry":{"type":"Point","coordinates":[103.91012,1.41497]},"properties":{"name":"Punggol Coast","codes":"NE18","lines":"NEL","colour":"#9016b2","interchange":0,"building":0}},{"type":"Feature","geometry":{"type":"Point","coordinates":[103.90665,1.41685]},"properties":{"name":"Punggol Point","codes":"PW3","lines":"PGLRT","colour":"#748477","interchange":0,"building":0}},{"type":"Feature","geometry":{"type":"Point","coordinates":[103.80604,1.29462]},"properties":{"name":"Queenstown","codes":"EW19","lines":"EWL","colour":"#009645","interchange":0,"building":0}},{"type":"Feature","geometry":{"type":"Point","coordinates":[103.85176,1.28348]},"properties":{"name":"Raffles Place","codes":"NS26, EW14","lines":"NSL, EWL","colour":"#d42e12","interchange":1,"building":0}},{"type":"Feature","geometry":{"type":"Point","coordinates":[103.89736,1.38405]},"properties":{"name":"Ranggung","codes":"SE5","lines":"SKLRT","colour":"#748477","interchange":0,"building":0}},{"type":"Feature","geometry":{"type":"Point","coordinates":[103.81677,1.28965]},"properties":{"name":"Redhill","codes":"EW18","lines":"EWL","colour":"#009645","interchange":0,"building":0}},{"type":"Feature","geometry":{"type":"Point","coordinates":[103.89053,1.38673]},"properties":{"name":"Renjong","codes":"SW8","lines":"SKLRT","colour":"#748477","interchange":0,"building":0}},{"type":"Feature","geometry":{"type":"Point","coordinates":[103.91615,1.39455]},"properties":{"name":"Riviera","codes":"PE4","lines":"PGLRT","colour":"#748477","interchange":0,"building":0}},{"type":"Feature","geometry":{"type":"Point","coordinates":[103.85247,1.30394]},"properties":{"name":"Rochor","codes":"DT13","lines":"DTL","colour":"#0354a6","interchange":0,"building":0}},{"type":"Feature","geometry":{"type":"Point","coordinates":[103.90597,1.39147]},"properties":{"name":"Rumbia","codes":"SE2","lines":"SKLRT","colour":"#748477","interchange":0,"building":0}},{"type":"Feature","geometry":{"type":"Point","coordinates":[103.90488,1.40972]},"properties":{"name":"Sam Kee","codes":"PW1","lines":"PGLRT","colour":"#748477","interchange":0,"building":0}},{"type":"Feature","geometry":{"type":"Point","coordinates":[103.90214,1.41589]},"properties":{"name":"Samudera","codes":"PW4","lines":"PGLRT","colour":"#748477","interchange":0,"building":0}},{"type":"Feature","geometry":{"type":"Point","coordinates":[103.76958,1.38779]},"properties":{"name":"Segar","codes":"BP11","lines":"BPLRT","colour":"#748477","interchange":0,"building":0}},{"type":"Feature","geometry":{"type":"Point","coordinates":[103.82006,1.44909]},"properties":{"name":"Sembawang","codes":"NS11","lines":"NSL","colour":"#d42e12","interchange":0,"building":0}},{"type":"Feature","geometry":{"type":"Point","coordinates":[103.89548,1.3917]},"properties":{"name":"Sengkang","codes":"NE16","lines":"NEL","colour":"#9016b2","interchange":0,"building":0}},{"type":"Feature","geometry":{"type":"Point","coordinates":[103.76238,1.38268]},"properties":{"name":"Senja","codes":"BP13","lines":"BPLRT","colour":"#748477","interchange":0,"building":0}},{"type":"Feature","geometry":{"type":"Point","coordinates":[103.87268,1.34981]},"properties":{"name":"Serangoon","codes":"CC13, NE12","lines":"CCL, NEL","colour":"#fa9e0d","interchange":1,"building":0}},{"type":"Feature","geometry":{"type":"Point","coordinates":[103.85092,1.27753]},"properties":{"name":"Shenton Way","codes":"TE19","lines":"TEL","colour":"#9d5b25","interchange":0,"building":0}},{"type":"Feature","geometry":{"type":"Point","coordinates":[103.93002,1.30959]},"properties":{"name":"Siglap","codes":"TE28","lines":"TEL","colour":"#9d5b25","interchange":0,"building":0}},{"type":"Feature","geometry":{"type":"Point","coordinates":[103.95337,1.34319]},"properties":{"name":"Simei","codes":"EW3","lines":"EWL","colour":"#009645","interchange":0,"building":0}},{"type":"Feature","geometry":{"type":"Point","coordinates":[103.79725,1.33109]},"properties":{"name":"Sixth Avenue","codes":"DT7","lines":"DTL","colour":"#0354a6","interchange":0,"building":0}},{"type":"Feature","geometry":{"type":"Point","coordinates":[103.83913,1.30033]},"properties":{"name":"Somerset","codes":"NS23","lines":"NSL","colour":"#d42e12","interchange":0,"building":0}},{"type":"Feature","geometry":{"type":"Point","coordinates":[103.89727,1.40533]},"properties":{"name":"Soo Teck","codes":"PW7","lines":"PGLRT","colour":"#748477","interchange":0,"building":0}},{"type":"Feature","geometry":{"type":"Point","coordinates":[103.74528,1.38027]},"properties":{"name":"South View","codes":"BP2","lines":"BPLRT","colour":"#748477","interchange":0,"building":0}},{"type":"Feature","geometry":{"type":"Point","coordinates":[103.81786,1.39817]},"properties":{"name":"Springleaf","codes":"TE4","lines":"TEL","colour":"#9d5b25","interchange":0,"building":0}},{"type":"Feature","geometry":{"type":"Point","coordinates":[103.87535,1.30287]},"properties":{"name":"Stadium","codes":"CC6","lines":"CCL","colour":"#fa9e0d","interchange":0,"building":0}},{"type":"Feature","geometry":{"type":"Point","coordinates":[103.82576,1.31998]},"properties":{"name":"Stevens","codes":"DT10, TE11","lines":"DTL, TEL","colour":"#0354a6","interchange":1,"building":0}},{"type":"Feature","geometry":{"type":"Point","coordinates":[103.89856,1.40846]},"properties":{"name":"Sumang","codes":"PW6","lines":"PGLRT","colour":"#748477","interchange":0,"building":0}},{"type":"Feature","geometry":{"type":"Point","coordinates":[103.95726,1.32039]},"properties":{"name":"Sungei Bedok","codes":"TE31, DT37","lines":"TEL, DTL","colour":"#9d5b25","interchange":1,"building":0}},{"type":"Feature","geometry":{"type":"Point","coordinates":[103.88821,1.3354]},"properties":{"name":"Tai Seng","codes":"CC11","lines":"CCL","colour":"#fa9e0d","interchange":0,"building":0}},{"type":"Feature","geometry":{"type":"Point","coordinates":[103.94408,1.35423]},"properties":{"name":"Tampines","codes":"DT32, EW2","lines":"DTL, EWL","colour":"#0354a6","interchange":1,"building":0}},{"type":"Feature","geometry":{"type":"Point","coordinates":[103.95473,1.35599]},"properties":{"name":"Tampines East","codes":"DT33","lines":"DTL","colour":"#0354a6","interchange":0,"building":0}},{"type":"Feature","geometry":{"type":"Point","coordinates":[103.93853,1.3457]},"properties":{"name":"Tampines West","codes":"DT31","lines":"DTL","colour":"#0354a6","interchange":0,"building":0}},{"type":"Feature","geometry":{"type":"Point","coordinates":[103.80726,1.3259]},"properties":{"name":"Tan Kah Kee","codes":"DT8","lines":"DTL","colour":"#0354a6","interchange":0,"building":0}},{"type":"Feature","geometry":{"type":"Point","coordinates":[103.94649,1.32718]},"properties":{"name":"Tanah Merah","codes":"EW4","lines":"EWL","colour":"#009645","interchange":0,"building":0}},{"type":"Feature","geometry":{"type":"Point","coordinates":[103.89738,1.29959]},"properties":{"name":"Tanjong Katong","codes":"TE25","lines":"TEL","colour":"#9d5b25","interchange":0,"building":0}},{"type":"Feature","geometry":{"type":"Point","coordinates":[103.84571,1.27661]},"properties":{"name":"Tanjong Pagar","codes":"EW15","lines":"EWL","colour":"#009645","interchange":0,"building":0}},{"type":"Feature","geometry":{"type":"Point","coordinates":[103.87346,1.29734]},"properties":{"name":"Tanjong Rhu","codes":"TE23","lines":"TEL","colour":"#9d5b25","interchange":0,"building":0}},{"type":"Feature","geometry":{"type":"Point","coordinates":[103.69189,1.35066]},"properties":{"name":"Tawas","codes":"JW2","lines":"JRL","colour":"#0099aa","interchange":0,"building":1}},{"type":"Feature","geometry":{"type":"Point","coordinates":[103.90659,1.41278]},"properties":{"name":"Teck Lee","codes":"PW2","lines":"PGLRT","colour":"#748477","interchange":0,"building":0}},{"type":"Feature","geometry":{"type":"Point","coordinates":[103.75365,1.37667]},"properties":{"name":"Teck Whye","codes":"BP4","lines":"BPLRT","colour":"#748477","interchange":0,"building":0}},{"type":"Feature","geometry":{"type":"Point","coordinates":[103.84827,1.28235]},"properties":{"name":"Telok Ayer","codes":"DT18","lines":"DTL","colour":"#0354a6","interchange":0,"building":0}},{"type":"Feature","geometry":{"type":"Point","coordinates":[103.80987,1.27089]},"properties":{"name":"Telok Blangah","codes":"CC28","lines":"CCL","colour":"#fa9e0d","interchange":0,"building":0}},{"type":"Feature","geometry":{"type":"Point","coordinates":[103.73009,1.36623]},"properties":{"name":"Tengah","codes":"JS3","lines":"JRL","colour":"#0099aa","interchange":0,"building":1}},{"type":"Feature","geometry":{"type":"Point","coordinates":[103.73681,1.35229]},"properties":{"name":"Tengah Park","codes":"JE2","lines":"JRL","colour":"#0099aa","interchange":0,"building":1}},{"type":"Feature","geometry":{"type":"Point","coordinates":[103.73341,1.35736]},"properties":{"name":"Tengah Plantation","codes":"JE1","lines":"JRL","colour":"#0099aa","interchange":0,"building":1}},{"type":"Feature","geometry":{"type":"Point","coordinates":[103.87563,1.39733]},"properties":{"name":"Thanggam","codes":"SW4","lines":"SKLRT","colour":"#748477","interchange":0,"building":0}},{"type":"Feature","geometry":{"type":"Point","coordinates":[103.82696,1.28613]},"properties":{"name":"Tiong Bahru","codes":"EW17","lines":"EWL","colour":"#009645","interchange":0,"building":0}},{"type":"Feature","geometry":{"type":"Point","coordinates":[103.84714,1.33262]},"properties":{"name":"Toa Payoh","codes":"NS19","lines":"NSL","colour":"#d42e12","interchange":0,"building":0}},{"type":"Feature","geometry":{"type":"Point","coordinates":[103.7426,1.34005]},"properties":{"name":"Toh Guan","codes":"JE4","lines":"JRL","colour":"#0099aa","interchange":0,"building":1}},{"type":"Feature","geometry":{"type":"Point","coordinates":[103.88583,1.38941]},"properties":{"name":"Tongkang","codes":"SW7","lines":"SKLRT","colour":"#748477","interchange":0,"building":0}},{"type":"Feature","geometry":{"type":"Point","coordinates":[103.64891,1.32116]},"properties":{"name":"Tuas Crescent","codes":"EW31","lines":"EWL","colour":"#009645","interchange":0,"building":0}},{"type":"Feature","geometry":{"type":"Point","coordinates":[103.63677,1.34029]},"properties":{"name":"Tuas Link","codes":"EW33","lines":"EWL","colour":"#009645","interchange":0,"building":0}},{"type":"Feature","geometry":{"type":"Point","coordinates":[103.63957,1.33005]},"properties":{"name":"Tuas West Road","codes":"EW32","lines":"EWL","colour":"#009645","interchange":0,"building":0}},{"type":"Feature","geometry":{"type":"Point","coordinates":[103.70928,1.32532]},"properties":{"name":"Tukang","codes":"JS10","lines":"JRL","colour":"#0099aa","interchange":0,"building":1}},{"type":"Feature","geometry":{"type":"Point","coordinates":[103.79425,1.3409]},"properties":{"name":"Turf City","codes":"CR14","lines":"CRL","colour":"#97c616","interchange":0,"building":1}},{"type":"Feature","geometry":{"type":"Point","coordinates":[103.89925,1.32994]},"properties":{"name":"Ubi","codes":"DT27","lines":"DTL","colour":"#0354a6","interchange":0,"building":0}},{"type":"Feature","geometry":{"type":"Point","coordinates":[103.96147,1.3419]},"properties":{"name":"Upper Changi","codes":"DT34","lines":"DTL","colour":"#0354a6","interchange":0,"building":0}},{"type":"Feature","geometry":{"type":"Point","coordinates":[103.83283,1.35457]},"properties":{"name":"Upper Thomson","codes":"TE8","lines":"TEL","colour":"#9d5b25","interchange":0,"building":0}},{"type":"Feature","geometry":{"type":"Point","coordinates":[103.75809,1.31054]},"properties":{"name":"West Coast","codes":"CR18","lines":"CRL","colour":"#97c616","interchange":0,"building":1}},{"type":"Feature","geometry":{"type":"Point","coordinates":[103.78746,1.43591]},"properties":{"name":"Woodlands","codes":"TE2, NS9","lines":"TEL, NSL","colour":"#9d5b25","interchange":1,"building":0}},{"type":"Feature","geometry":{"type":"Point","coordinates":[103.78571,1.44829]},"properties":{"name":"Woodlands North","codes":"TE1","lines":"TEL","colour":"#9d5b25","interchange":0,"building":0}},{"type":"Feature","geometry":{"type":"Point","coordinates":[103.79378,1.42673]},"properties":{"name":"Woodlands South","codes":"TE3","lines":"TEL","colour":"#9d5b25","interchange":0,"building":0}},{"type":"Feature","geometry":{"type":"Point","coordinates":[103.87075,1.3392]},"properties":{"name":"Woodleigh","codes":"NE11","lines":"NEL","colour":"#9016b2","interchange":0,"building":0}},{"type":"Feature","geometry":{"type":"Point","coordinates":[103.7474,1.39746]},"properties":{"name":"Yew Tee","codes":"NS5","lines":"NSL","colour":"#d42e12","interchange":0,"building":0}},{"type":"Feature","geometry":{"type":"Point","coordinates":[103.84494,1.38179]},"properties":{"name":"Yio Chu Kang","codes":"NS15","lines":"NSL","colour":"#d42e12","interchange":0,"building":0}},{"type":"Feature","geometry":{"type":"Point","coordinates":[103.83503,1.42938]},"properties":{"name":"Yishun","codes":"NS13","lines":"NSL","colour":"#d42e12","interchange":0,"building":0}},{"type":"Feature","geometry":{"type":"Point","coordinates":[103.78739,1.29965]},"properties":{"name":"one-north","codes":"CC23","lines":"CCL","colour":"#fa9e0d","interchange":0,"building":0}}]}